{"type": "FeatureCollection", "features": [{"type": "Feature", "properties": {"ref": "B00406400TN69G", "uso_inspire": "sin dato", "estado": "funcional (functional)", "huella_m2": 9.0, "complejo": "", "suelo": "SNU", "T10": true, "T100": true, "T500": true, "ZFP": true, "pct_T500": 100.0, "osm_cat": "", "osm_nombre": "", "cat_uso": "Obras de urbanización y jardineria, suelos sin edificar", "cat_destino": "ALMACEN", "cat_sup_m2": 27.0, "cat_anio": "1960", "cat_dir": "PQ PALOMAR 64(A) 33172 RIBERA DE ARRIBA (ASTURIAS)", "cat_n_inmuebles": 1, "cat_aviso": "", "enlace": "https://www1.sedecatastro.gob.es/CYCBienInmueble/OVCListaBienes.aspx?rc1=B004064&rc2=00TN69G"}, "geometry": {"type": "Polygon", "coordinates": [[[-5.914344428570176, 43.311765295779225], [-5.914381374263898, 43.31176435362049], [-5.914382664497899, 43.31179133240985], [-5.914345718787875, 43.31179227456947], [-5.914344428570176, 43.311765295779225]]]}}, {"type": "Feature", "properties": {"ref": "B00406500TN69G", "uso_inspire": "sin dato", "estado": "funcional (functional)", "huella_m2": 19.4, "complejo": "", "suelo": "SNU", "T10": true, "T100": true, "T500": true, "ZFP": true, "pct_T500": 75.2, "osm_cat": "", "osm_nombre": "", "cat_uso": "Obras de urbanización y jardineria, suelos sin edificar", "cat_destino": "ALMACEN", "cat_sup_m2": 39.0, "cat_anio": "1960", "cat_dir": "PQ PALOMAR 65(A) 33172 RIBERA DE ARRIBA (ASTURIAS)", "cat_n_inmuebles": 1, "cat_aviso": "", "enlace": "https://www1.sedecatastro.gob.es/CYCBienInmueble/OVCListaBienes.aspx?rc1=B004065&rc2=00TN69G"}, "geometry": {"type": "Polygon", "coordinates": [[[-5.913789670600035, 43.311723617157334], [-5.913785363692881, 43.3117366925795], [-5.913764535626299, 43.3117472179388], [-5.913739783219542, 43.31174271680014], [-5.9137282649017235, 43.311726173178585], [-5.9137375507243535, 43.31170891906373], [-5.91375292877189, 43.311703034611085], [-5.9137776682635455, 43.311707265959335], [-5.913789670600035, 43.311723617157334]]]}}, {"type": "Feature", "properties": {"ref": "33057A00200263", "uso_inspire": "servicios publicos", "estado": "funcional (functional)", "huella_m2": 49.0, "complejo": "C05", "suelo": "nucleo rural", "T10": false, "T100": true, "T500": true, "ZFP": false, "pct_T500": 100.0, "osm_cat": "", "osm_nombre": "", "cat_uso": "Agrario; Cultural", "cat_destino": "CULTURAL", "cat_sup_m2": 521.0, "cat_anio": "2023", "cat_dir": "LG BUEÑO  Polígono 2 Parcela 263 CENTRAL ARTISTICA D BUEÑO EL HUERTO. 33171 RIBERA DE ARRIBA (ASTURIAS)", "cat_n_inmuebles": 2, "cat_aviso": "", "enlace": "https://www1.sedecatastro.gob.es/CYCBienInmueble/OVCListaBienes.aspx?rc1=33057A0&rc2=0200263"}, "geometry": {"type": "Polygon", "coordinates": [[[-5.89658730850366, 43.31566262249417], [-5.896538307890315, 43.3156668357192], [-5.8965325377984446, 43.315631056396754], [-5.896581410946504, 43.31562675636594], [-5.8965845170870885, 43.3156454057538], [-5.896703629457883, 43.315634913486534], [-5.896708523046226, 43.31566522263669], [-5.896589406342421, 43.31567562498002], [-5.89658730850366, 43.31566262249417]]]}}, {"type": "Feature", "properties": {"ref": "A00302000TP60B", "uso_inspire": "servicios publicos", "estado": "funcional (functional)", "huella_m2": 236.0, "complejo": "C05", "suelo": "nucleo rural", "T10": false, "T100": true, "T500": true, "ZFP": true, "pct_T500": 100.0, "osm_cat": "", "osm_nombre": "", "cat_uso": "Cultural", "cat_destino": "CULTURAL", "cat_sup_m2": 536.0, "cat_anio": "2020", "cat_dir": "LG BUEÑO 65 CENTRAL ARTÍSTICA D BUEÑO 33171 RIBERA DE ARRIBA (ASTURIAS)", "cat_n_inmuebles": 1, "cat_aviso": "", "enlace": "https://www1.sedecatastro.gob.es/CYCBienInmueble/OVCListaBienes.aspx?rc1=A003020&rc2=00TP60B"}, "geometry": {"type": "Polygon", "coordinates": [[[-5.897178779775935, 43.315661585835244], [-5.897158236481578, 43.3155148028002], [-5.897334681965186, 43.315501595887916], [-5.897355348838966, 43.315648375757064], [-5.897178779775935, 43.315661585835244]]]}}, {"type": "Feature", "properties": {"ref": "A00300600TP60B", "uso_inspire": "servicios publicos", "estado": "funcional (functional)", "huella_m2": 34.7, "complejo": "C06", "suelo": "nucleo rural", "T10": false, "T100": true, "T500": true, "ZFP": false, "pct_T500": 100.0, "osm_cat": "", "osm_nombre": "", "cat_uso": "Religioso", "cat_destino": "RELIGIOSO", "cat_sup_m2": 34.0, "cat_anio": "1890", "cat_dir": "LG BUEÑO 3(A) 33171 RIBERA DE ARRIBA (ASTURIAS)", "cat_n_inmuebles": 1, "cat_aviso": "", "enlace": "https://www1.sedecatastro.gob.es/CYCBienInmueble/OVCListaBienes.aspx?rc1=A003006&rc2=00TP60B"}, "geometry": {"type": "Polygon", "coordinates": [[[-5.896031447001362, 43.31642844545982], [-5.896020839290508, 43.31647508435432], [-5.895940596631369, 43.316465412655525], [-5.895951081239062, 43.316418776887645], [-5.896031447001362, 43.31642844545982]]]}}, {"type": "Feature", "properties": {"ref": "A01900300TP60B", "uso_inspire": "servicios publicos", "estado": "funcional (functional)", "huella_m2": 113.9, "complejo": "C04", "suelo": "SNU", "T10": true, "T100": true, "T500": true, "ZFP": true, "pct_T500": 100.0, "osm_cat": "", "osm_nombre": "", "cat_uso": "Deportivo", "cat_destino": "ALMACEN", "cat_sup_m2": 113.0, "cat_anio": "1978", "cat_dir": "LG LLOSALIN, EL 3(A) 33171 RIBERA DE ARRIBA (ASTURIAS)", "cat_n_inmuebles": 1, "cat_aviso": "", "enlace": "https://www1.sedecatastro.gob.es/CYCBienInmueble/OVCListaBienes.aspx?rc1=A019003&rc2=00TP60B"}, "geometry": {"type": "Polygon", "coordinates": [[[-5.887058204915232, 43.316070497420704], [-5.886841997502837, 43.3161632969416], [-5.886807016361349, 43.31611988135189], [-5.887023223679975, 43.31602708189944], [-5.887058204915232, 43.316070497420704]]]}}, {"type": "Feature", "properties": {"ref": "A01900400TP60B", "uso_inspire": "servicios publicos", "estado": "funcional (functional)", "huella_m2": 1200.2, "complejo": "C04", "suelo": "SNU", "T10": true, "T100": true, "T500": true, "ZFP": true, "pct_T500": 100.0, "osm_cat": "deportivo + deportivo", "osm_nombre": "pitch | pitch", "cat_uso": "Deportivo", "cat_destino": "DEPORTIVO", "cat_sup_m2": 1200.0, "cat_anio": "1978", "cat_dir": "LG LLOSALIN, EL 4(A) 33171 RIBERA DE ARRIBA (ASTURIAS)", "cat_n_inmuebles": 1, "cat_aviso": "", "enlace": "https://www1.sedecatastro.gob.es/CYCBienInmueble/OVCListaBienes.aspx?rc1=A019004&rc2=00TP60B"}, "geometry": {"type": "Polygon", "coordinates": [[[-5.887379941552739, 43.31578982102499], [-5.887105225635272, 43.315891752557924], [-5.886837276419358, 43.315506671321295], [-5.887111991117033, 43.31540474046341], [-5.887379941552739, 43.31578982102499]]]}}, {"type": "Feature", "properties": {"ref": "A01900500TP60B", "uso_inspire": "servicios publicos", "estado": "funcional (functional)", "huella_m2": 227.7, "complejo": "C04", "suelo": "SNU", "T10": true, "T100": true, "T500": true, "ZFP": true, "pct_T500": 100.0, "osm_cat": "deportivo", "osm_nombre": "pitch", "cat_uso": "Deportivo", "cat_destino": "DEPORTIVO", "cat_sup_m2": 227.0, "cat_anio": "1978", "cat_dir": "LG LLOSALIN, EL 5(A) 33171 RIBERA DE ARRIBA (ASTURIAS)", "cat_n_inmuebles": 1, "cat_aviso": "", "enlace": "https://www1.sedecatastro.gob.es/CYCBienInmueble/OVCListaBienes.aspx?rc1=A019005&rc2=00TP60B"}, "geometry": {"type": "Polygon", "coordinates": [[[-5.887102448040569, 43.31532304599995], [-5.886898368225626, 43.315414098630114], [-5.886883060892393, 43.31526799174841], [-5.887009379044793, 43.31521176781292], [-5.887102448040569, 43.31532304599995]]]}}, {"type": "Feature", "properties": {"ref": "A01900600TP60B", "uso_inspire": "servicios publicos", "estado": "funcional (functional)", "huella_m2": 1076.4, "complejo": "C04", "suelo": "SNU", "T10": true, "T100": true, "T500": true, "ZFP": true, "pct_T500": 100.0, "osm_cat": "deportivo + deportivo", "osm_nombre": "pitch | pitch", "cat_uso": "Deportivo", "cat_destino": "DEPORTIVO", "cat_sup_m2": 1076.0, "cat_anio": "1978", "cat_dir": "LG LLOSALIN, EL 6(A) 33171 RIBERA DE ARRIBA (ASTURIAS)", "cat_n_inmuebles": 1, "cat_aviso": "", "enlace": "https://www1.sedecatastro.gob.es/CYCBienInmueble/OVCListaBienes.aspx?rc1=A019006&rc2=00TP60B"}, "geometry": {"type": "Polygon", "coordinates": [[[-5.887658544719541, 43.31562422303939], [-5.887401292380844, 43.31571734039265], [-5.8871484889357975, 43.315344842847104], [-5.887405740148348, 43.31525172609162], [-5.887658544719541, 43.31562422303939]]]}}, {"type": "Feature", "properties": {"ref": "A01900700TP60B", "uso_inspire": "servicios publicos", "estado": "funcional (functional)", "huella_m2": 128.9, "complejo": "C04", "suelo": "SNU", "T10": true, "T100": true, "T500": true, "ZFP": true, "pct_T500": 100.0, "osm_cat": "", "osm_nombre": "", "cat_uso": "Deportivo", "cat_destino": "ALMACEN", "cat_sup_m2": 128.0, "cat_anio": "1978", "cat_dir": "LG LLOSALIN, EL 7(A) 33171 RIBERA DE ARRIBA (ASTURIAS)", "cat_n_inmuebles": 1, "cat_aviso": "", "enlace": "https://www1.sedecatastro.gob.es/CYCBienInmueble/OVCListaBienes.aspx?rc1=A019007&rc2=00TP60B"}, "geometry": {"type": "Polygon", "coordinates": [[[-5.888018180887366, 43.315344568078125], [-5.8877783998362885, 43.31544723910648], [-5.8877435373816125, 43.315403730762604], [-5.887810495060342, 43.315375117176075], [-5.887806697454883, 43.31537044106623], [-5.887829540424789, 43.31536067987057], [-5.887833333769144, 43.31536526604827], [-5.88792639575312, 43.31532545819624], [-5.887922598142269, 43.315320782090375], [-5.887945441074161, 43.31531102087255], [-5.887949238686078, 43.315315696977606], [-5.887983195165652, 43.31530106292229], [-5.888018180887366, 43.315344568078125]]]}}, {"type": "Feature", "properties": {"ref": "A01900800TP60B", "uso_inspire": "comercial", "estado": "funcional (functional)", "huella_m2": 87.1, "complejo": "", "suelo": "SNU", "T10": true, "T100": true, "T500": true, "ZFP": true, "pct_T500": 100.0, "osm_cat": "deportivo", "osm_nombre": "El Llosalín", "cat_uso": "Comercial", "cat_destino": "OCIO HOSTEL.", "cat_sup_m2": 86.0, "cat_anio": "1978", "cat_dir": "LG LLOSALIN, EL 8(A) 33171 RIBERA DE ARRIBA (ASTURIAS)", "cat_n_inmuebles": 1, "cat_aviso": "", "enlace": "https://www1.sedecatastro.gob.es/CYCBienInmueble/OVCListaBienes.aspx?rc1=A019008&rc2=00TP60B"}, "geometry": {"type": "Polygon", "coordinates": [[[-5.888334915805357, 43.31521348021916], [-5.888162460451685, 43.31527447315564], [-5.8881323201699916, 43.315229134850654], [-5.888304898592345, 43.31516813884938], [-5.888334915805357, 43.31521348021916]]]}}, {"type": "Feature", "properties": {"ref": "A01900900TP60B", "uso_inspire": "servicios publicos", "estado": "funcional (functional)", "huella_m2": 623.8, "complejo": "C04", "suelo": "SNU", "T10": true, "T100": true, "T500": true, "ZFP": true, "pct_T500": 100.0, "osm_cat": "deportivo", "osm_nombre": "swimming_pool", "cat_uso": "Deportivo", "cat_destino": "DEPORTIVO", "cat_sup_m2": 624.0, "cat_anio": "1978", "cat_dir": "LG LLOSALIN, EL 9(A) 33171 RIBERA DE ARRIBA (ASTURIAS)", "cat_n_inmuebles": 1, "cat_aviso": "", "enlace": "https://www1.sedecatastro.gob.es/CYCBienInmueble/OVCListaBienes.aspx?rc1=A019009&rc2=00TP60B"}, "geometry": {"type": "Polygon", "coordinates": [[[-5.8883780374004315, 43.314936960911915], [-5.888024380109671, 43.31506429991142], [-5.887918030294154, 43.31490698796109], [-5.888271810090162, 43.31477964619485], [-5.8883780374004315, 43.314936960911915]]]}}, {"type": "Feature", "properties": {"ref": "A01901000TP60B", "uso_inspire": "servicios publicos", "estado": "funcional (functional)", "huella_m2": 148.9, "complejo": "C04", "suelo": "SNU", "T10": true, "T100": true, "T500": true, "ZFP": false, "pct_T500": 100.0, "osm_cat": "deportivo", "osm_nombre": "swimming_pool", "cat_uso": "Deportivo", "cat_destino": "DEPORTIVO", "cat_sup_m2": 148.0, "cat_anio": "1978", "cat_dir": "LG LLOSALIN, EL 10(A) 33171 RIBERA DE ARRIBA (ASTURIAS)", "cat_n_inmuebles": 1, "cat_aviso": "", "enlace": "https://www1.sedecatastro.gob.es/CYCBienInmueble/OVCListaBienes.aspx?rc1=A019010&rc2=00TP60B"}, "geometry": {"type": "Polygon", "coordinates": [[[-5.888432329410131, 43.31507298834915], [-5.888293243964086, 43.31511477011727], [-5.888236027854647, 43.31501330147235], [-5.888374985691118, 43.314971432960135], [-5.888432329410131, 43.31507298834915]]]}}, {"type": "Feature", "properties": {"ref": "A01901100TP60B", "uso_inspire": "servicios publicos", "estado": "funcional (functional)", "huella_m2": 254.7, "complejo": "C04", "suelo": "SNU", "T10": true, "T100": true, "T500": true, "ZFP": true, "pct_T500": 100.0, "osm_cat": "", "osm_nombre": "", "cat_uso": "Deportivo", "cat_destino": "DEPORTIVO", "cat_sup_m2": 254.0, "cat_anio": "1978", "cat_dir": "LG LLOSALIN, EL 11(A) 33171 RIBERA DE ARRIBA (ASTURIAS)", "cat_n_inmuebles": 1, "cat_aviso": "", "enlace": "https://www1.sedecatastro.gob.es/CYCBienInmueble/OVCListaBienes.aspx?rc1=A019011&rc2=00TP60B"}, "geometry": {"type": "Polygon", "coordinates": [[[-5.888638439725586, 43.31493380080197], [-5.888538137432762, 43.31494831117886], [-5.888464748131899, 43.31467734771466], [-5.888565050002842, 43.31466283741379], [-5.888638439725586, 43.31493380080197]]]}}, {"type": "Feature", "properties": {"ref": "33057A00300235", "uso_inspire": "residencial", "estado": "funcional (functional)", "huella_m2": 119.7, "complejo": "", "suelo": "SNU", "T10": false, "T100": true, "T500": true, "ZFP": false, "pct_T500": 100.0, "osm_cat": "deportivo", "osm_nombre": "swimming_pool", "cat_uso": "Agrario; Residencial", "cat_destino": "VIVIENDA; PORCHE 100%", "cat_sup_m2": 185.0, "cat_anio": "2017", "cat_dir": "LG BUEÑO  Polígono 3 Parcela 235 LA CARCA. 33171 RIBERA DE ARRIBA (ASTURIAS)", "cat_n_inmuebles": 2, "cat_aviso": "", "enlace": "https://www1.sedecatastro.gob.es/CYCBienInmueble/OVCListaBienes.aspx?rc1=33057A0&rc2=0300235"}, "geometry": {"type": "Polygon", "coordinates": [[[-5.890132503262228, 43.31732140883851], [-5.890135995744611, 43.3173482421847], [-5.8900168907995685, 43.317356386403624], [-5.890006489762278, 43.31727489399157], [-5.890059217107817, 43.31727121959773], [-5.8900594963739525, 43.317225112555086], [-5.890120709327128, 43.31722095342793], [-5.890123993313639, 43.317245991267036], [-5.890130138817499, 43.31724556573622], [-5.890139876169502, 43.317320862228236], [-5.890132503262228, 43.31732140883851]]]}}, {"type": "Feature", "properties": {"ref": "A00309500TP60B", "uso_inspire": "servicios publicos", "estado": "funcional (functional)", "huella_m2": 150.5, "complejo": "C07", "suelo": "nucleo rural", "T10": false, "T100": true, "T500": true, "ZFP": true, "pct_T500": 100.0, "osm_cat": "", "osm_nombre": "", "cat_uso": "Cultural", "cat_destino": "ENSEÑANZA", "cat_sup_m2": 290.0, "cat_anio": "1918", "cat_dir": "LG BUEÑO 9(D) 33171 RIBERA DE ARRIBA (ASTURIAS)", "cat_n_inmuebles": 1, "cat_aviso": "", "enlace": "https://www1.sedecatastro.gob.es/CYCBienInmueble/OVCListaBienes.aspx?rc1=A003095&rc2=00TP60B"}, "geometry": {"type": "Polygon", "coordinates": [[[-5.891227768285316, 43.31655979727779], [-5.891248644741657, 43.3165501751884], [-5.891271610453172, 43.31657678596692], [-5.891250857156361, 43.316586404944694], [-5.891277208663186, 43.31661680174331], [-5.891090296941123, 43.316703195679175], [-5.891037594056871, 43.31664240198635], [-5.891224505676327, 43.31655600813911], [-5.891227768285316, 43.31655979727779]]]}}, {"type": "Feature", "properties": {"ref": "6897601TN6969N", "uso_inspire": "sin dato", "estado": "funcional (functional)", "huella_m2": 24871.6, "complejo": "", "suelo": "SNU", "T10": true, "T100": true, "T500": true, "ZFP": true, "pct_T500": 96.6, "osm_cat": "", "osm_nombre": "", "cat_uso": "Obras de urbanización y jardineria, suelos sin edificar", "cat_destino": "CENTRAL CARBON", "cat_sup_m2": 0.0, "cat_anio": "1984", "cat_dir": "LG SOTO DE RIBERA 75 Es:1 Pl:00 Pt:01 C.TERMICA SOTO DE RIBERA 33172 RIBERA DE ARRIBA (ASTURIAS)", "cat_n_inmuebles": 1, "cat_aviso": "", "enlace": "https://www1.sedecatastro.gob.es/CYCBienInmueble/OVCListaBienes.aspx?rc1=6897601&rc2=TN6969N"}, "geometry": {"type": "MultiPolygon", "coordinates": [[[[-5.879888633396571, 43.313174484088634], [-5.880017838335467, 43.313132331270445], [-5.880041070116801, 43.31316992240919], [-5.879911011504428, 43.31321227684386], [-5.879888633396571, 43.313174484088634]]], [[[-5.876816711006, 43.31219740397943], [-5.876801442716778, 43.31226576786855], [-5.8765711729204435, 43.312238339536414], [-5.876586144159638, 43.31217151381935], [-5.8763659142020614, 43.31214518295434], [-5.876378447744805, 43.3120894033916], [-5.876916889369996, 43.31215418454121], [-5.87690536708046, 43.31220786780458], [-5.876816711006, 43.31219740397943]]], [[[-5.8769412910946865, 43.31392473011298], [-5.876772090362802, 43.313864161154086], [-5.876824162858092, 43.3137865872435], [-5.876993363418055, 43.31384715613062], [-5.8769412910946865, 43.31392473011298]]], [[[-5.876845330662552, 43.314020786401635], [-5.876790591894612, 43.31402882719233], [-5.87677571990816, 43.31397499799518], [-5.876830458630443, 43.313966957212855], [-5.876845330662552, 43.314020786401635]]], [[[-5.8766910992329064, 43.313747078051385], [-5.876810912473877, 43.31378800125422], [-5.876728686086364, 43.31391639593329], [-5.876608872638895, 43.31387547265061], [-5.8766910992329064, 43.313747078051385]]], [[[-5.875476138346785, 43.3138799379154], [-5.87534962217673, 43.313890324178026], [-5.875356076387247, 43.31391996474724], [-5.875315237785707, 43.31392468381855], [-5.875308783594318, 43.313895043246504], [-5.875181587795361, 43.31390670696957], [-5.875155592996407, 43.313891514052465], [-5.875146106327874, 43.31386816246099], [-5.875160177322495, 43.31384493852832], [-5.875187077923537, 43.313829675429034], [-5.875275762854418, 43.31380934640188], [-5.8752789094625255, 43.31381854126817], [-5.87538165143894, 43.31380344092721], [-5.875531632687453, 43.31376248119752], [-5.875540075868571, 43.31375326484566], [-5.875542209417203, 43.313707021087644], [-5.875531061318826, 43.31370595099746], [-5.8754682743824205, 43.31372373780086], [-5.8754482855086305, 43.31368687448542], [-5.875527338163769, 43.31366624737784], [-5.875565861630979, 43.3136725712571], [-5.875577303793917, 43.31364329075643], [-5.875634142543905, 43.313570009374914], [-5.87572115511553, 43.313503802122845], [-5.8758142440611625, 43.3134618425084], [-5.875926668449729, 43.31343767420027], [-5.876056563838971, 43.31343620617418], [-5.8761698662085395, 43.313451542712045], [-5.876285512263558, 43.31349563267519], [-5.876373727423786, 43.31355680003435], [-5.876433063584568, 43.31363048930417], [-5.87647093582687, 43.31371444299853], [-5.876475312605803, 43.31380716318101], [-5.876448016070609, 43.31388978581634], [-5.876388086125565, 43.3139707086854], [-5.876305452278872, 43.31403563573087], [-5.876202216808122, 43.3140820829398], [-5.876073032886868, 43.31410910434355], [-5.875942078619305, 43.314109068373824], [-5.8758361859572235, 43.3140939953557], [-5.87572209353547, 43.31404626428445], [-5.875646958713963, 43.31398791866913], [-5.875600354578485, 43.313938399279245], [-5.875566075090341, 43.313888749845475], [-5.8755522770128, 43.31388378471239], [-5.875476138346785, 43.3138799379154]], [[-5.876018688496485, 43.31397136149108], [-5.876091982187302, 43.31396195373059], [-5.876140567397935, 43.3139463247721], [-5.876183899301168, 43.31392389498827], [-5.876220300331341, 43.31389569703472], [-5.876248216092925, 43.31386276046827], [-5.876266724982186, 43.31382645907631], [-5.876274901157548, 43.31378807671223], [-5.876272583214723, 43.31374941822288], [-5.876259707441312, 43.313711745758866], [-5.876236851393636, 43.31367684556378], [-5.87620493238896, 43.313645865054404], [-5.8761652457069475, 43.31362012221251], [-5.876119320204212, 43.31360065902438], [-5.876069041475277, 43.31358823838258], [-5.8760162866185786, 43.31358344331795], [-5.875963399902289, 43.313586304873475], [-5.875912232953813, 43.31359686649337], [-5.875865100334001, 43.31361452970197], [-5.8758235818932905, 43.3136388045541], [-5.875789597261493, 43.31366856228228], [-5.875764322871953, 43.313702602781895], [-5.875748935166317, 43.31373972594734], [-5.875743850409279, 43.31377830060378], [-5.875749370196353, 43.31381687853736], [-5.875765294992196, 43.31385384406305], [-5.875790941103028, 43.31388777375426], [-5.875825378506682, 43.31391725038096], [-5.875867078345042, 43.313941231937676], [-5.875914511750839, 43.313958676419794], [-5.875965793098704, 43.31396882091935], [-5.876018688496485, 43.31397136149108]]], [[[-5.875948540153044, 43.313279285204224], [-5.876022358000513, 43.313173882579086], [-5.876138585259019, 43.313217237755616], [-5.876064767568121, 43.31332264045095], [-5.875948540153044, 43.313279285204224]]], [[[-5.875925651942052, 43.3121750808745], [-5.875935323493251, 43.31212135424065], [-5.876022501454521, 43.31213185594866], [-5.876013212257856, 43.31218323194971], [-5.875925651942052, 43.3121750808745]]], [[[-5.87599940267491, 43.31305587870554], [-5.875976787210687, 43.31308877187227], [-5.8758590866436755, 43.31304554364214], [-5.875881702157891, 43.31301265049716], [-5.87599940267491, 43.31305587870554]]], [[[-5.875861067052509, 43.31215995880723], [-5.875857847584951, 43.312172735341306], [-5.8757400123951165, 43.31227816500352], [-5.875748900789068, 43.31228361381389], [-5.87571682794874, 43.31231206286936], [-5.8757081943561404, 43.31230678772339], [-5.875065003822972, 43.31285222024715], [-5.875078551065179, 43.31285710171181], [-5.875066119724081, 43.31287587247023], [-5.875223501535736, 43.3129316991324], [-5.8755154631198385, 43.31249216563556], [-5.875687130467117, 43.312552854498115], [-5.875335553234837, 43.31308257687918], [-5.875005500446158, 43.31296572584323], [-5.874997091112611, 43.31297827275331], [-5.87498830874994, 43.31297507219625], [-5.874897356001575, 43.31311196870011], [-5.873963251814543, 43.312781158514795], [-5.873972922776564, 43.312766599092214], [-5.873217882823974, 43.31249889906164], [-5.873400609576052, 43.312221486403466], [-5.873410517132048, 43.31222501895046], [-5.873450696203079, 43.31216449286493], [-5.873389144718026, 43.31214046929047], [-5.8734065243203, 43.31211680222608], [-5.873372355507313, 43.31210343511264], [-5.873506330679323, 43.31190090001108], [-5.87356789390419, 43.311812734428415], [-5.87362245097161, 43.311832251740164], [-5.873817833830832, 43.31155136880387], [-5.873850460927763, 43.31156342396613], [-5.87387215540525, 43.31153190495939], [-5.873833950482759, 43.31148262380807], [-5.8737417216562005, 43.31144865716483], [-5.873650198119602, 43.31147409856476], [-5.873615219812228, 43.31150370056011], [-5.873584185340343, 43.31149142520737], [-5.8735569038506386, 43.31149598284704], [-5.873534047070573, 43.311445325256265], [-5.873772921571714, 43.31139907140507], [-5.874091357164537, 43.31151558794356], [-5.874081448584297, 43.31153033343184], [-5.87409734704637, 43.31155370395467], [-5.874303607819101, 43.311631622822674], [-5.874247541689415, 43.31171082671303], [-5.874270257191132, 43.31171925934223], [-5.8741110235056295, 43.311948271789376], [-5.874189716040577, 43.31188344543762], [-5.874173153937567, 43.311877379138124], [-5.8742141388312366, 43.311818273145114], [-5.874297968503483, 43.31184929927059], [-5.8742891939344055, 43.31186194535515], [-5.875552268411837, 43.312070126472015], [-5.8755536530326875, 43.31206549963671], [-5.875620365556366, 43.31207606638642], [-5.875618879001608, 43.31208114598309], [-5.875818090873735, 43.312114129841945], [-5.875820618005742, 43.31210497229647], [-5.875930269803184, 43.31212139137435], [-5.875917073603608, 43.312168363727395], [-5.875861067052509, 43.31215995880723]], [[-5.875808797838731, 43.31214713793669], [-5.875609207902832, 43.31211398349644], [-5.875605686901914, 43.31212559710166], [-5.875541959804485, 43.31211558550163], [-5.875535423323638, 43.31213384783514], [-5.87540446568239, 43.312110131022216], [-5.875414106989342, 43.312081886272296], [-5.875373715975691, 43.31207515912791], [-5.8753602822359365, 43.31210403952457], [-5.875171403628087, 43.31205746910981], [-5.8751781184187895, 43.31204298395532], [-5.874673459091534, 43.31195978722116], [-5.87487468111289, 43.31203540072967], [-5.874847869300616, 43.31207344142991], [-5.8751308169316445, 43.312258287053716], [-5.8751954212481925, 43.31231563740837], [-5.875172636200728, 43.312337099713396], [-5.875143966790172, 43.31231747211779], [-5.875080112831981, 43.312291706600064], [-5.874837156006648, 43.31213385707727], [-5.8745347058654565, 43.312568070251345], [-5.874583777066647, 43.312586284452884], [-5.874652058281347, 43.31248894540577], [-5.874789338734674, 43.31253951577912], [-5.874685933749316, 43.312689510908335], [-5.874547272834981, 43.312638434899135], [-5.8745314564277304, 43.31266125246477], [-5.874545135230065, 43.31266631076247], [-5.874525742703762, 43.312694350506156], [-5.874700416312009, 43.31275865684473], [-5.874720033880183, 43.31273016121539], [-5.874745238456697, 43.31273907137275], [-5.874792772430508, 43.31266980609724], [-5.874801053619913, 43.312672839198086], [-5.874923324253536, 43.312488874827096], [-5.875166977974246, 43.312575215537166], [-5.87499854590252, 43.31282877117323], [-5.875021992392195, 43.312837005182686], [-5.875638223583736, 43.312316021583555], [-5.875672534607279, 43.31228535529315], [-5.875669493949928, 43.31228363101936], [-5.875819592993875, 43.31215379930946], [-5.875807421723816, 43.31215194463926], [-5.875808797838731, 43.31214713793669]], [[-5.874481089747952, 43.31192806988529], [-5.874496096539984, 43.311953443638984], [-5.874490536111727, 43.311979334693106], [-5.874465912195204, 43.31199841205169], [-5.874425958097745, 43.31200355875115], [-5.8743938402511455, 43.311991851103876], [-5.874380208851255, 43.31197733748303], [-5.874375202838747, 43.31196008582987], [-5.874385732013595, 43.311934970205], [-5.874418208141724, 43.31191767623386], [-5.874267720432427, 43.311892918647075], [-5.874256987915118, 43.31190849522419], [-5.874232136258919, 43.31189921592425], [-5.874103707152583, 43.31200491033788], [-5.87427967792192, 43.3120680142037], [-5.874200702285794, 43.3121791278639], [-5.874294699099809, 43.31221395005517], [-5.874086192646288, 43.31251461227642], [-5.874114768975449, 43.3125244282111], [-5.874119483382368, 43.31251719655779], [-5.87413212595583, 43.31252120049503], [-5.874229161395245, 43.312453121605245], [-5.8742356928655255, 43.31245565851691], [-5.874266115276697, 43.31241311523646], [-5.874287336184815, 43.31242122529268], [-5.874418933977918, 43.312236306561786], [-5.874452958712525, 43.31224922678853], [-5.87447052909083, 43.31222438425626], [-5.874397213718928, 43.312196695383726], [-5.874541390679929, 43.31199354233807], [-5.874560347981527, 43.31200071884811], [-5.874597905113826, 43.31194737140224], [-5.874481089747952, 43.31192806988529]]], [[[-5.875824095092594, 43.31254706706387], [-5.875851691698109, 43.31280262404258], [-5.875857229591059, 43.31280239464956], [-5.875867206939525, 43.31289362335119], [-5.875818385050068, 43.312896382551216], [-5.875811970885445, 43.31280488410534], [-5.875778704928049, 43.3125493797356], [-5.8757649098165095, 43.31246085822284], [-5.875753821443671, 43.31245843606347], [-5.87576085119046, 43.312419272223906], [-5.875756448225061, 43.31238867966528], [-5.875815784888689, 43.312384035201816], [-5.875822064796238, 43.312420433072475], [-5.87584924007621, 43.31242407112598], [-5.875836298644979, 43.31246860600032], [-5.875827601197246, 43.31246720415378], [-5.875834427639842, 43.31254653694372], [-5.875824095092594, 43.31254706706387]]], [[[-5.875659828738312, 43.312899291785435], [-5.875590491221824, 43.31287492508317], [-5.875695690934969, 43.31271597010887], [-5.875762743549395, 43.312738953616595], [-5.875659828738312, 43.312899291785435]]], [[[-5.87560187262384, 43.31337741727387], [-5.8755004345911095, 43.31352988472733], [-5.8754179184669155, 43.31350062723564], [-5.87527455612487, 43.31371582610035], [-5.875221636126815, 43.31369707875714], [-5.875344060222387, 43.31351374037059], [-5.875313334352928, 43.31350280831871], [-5.8751920102462964, 43.31368332778609], [-5.875082012744831, 43.31364395672716], [-5.875382748588142, 43.3131969096927], [-5.87544965453959, 43.313177578675486], [-5.875724912412123, 43.31327509821002], [-5.875646515361614, 43.31339322134414], [-5.87560187262384, 43.31337741727387]]], [[[-5.8751584901883644, 43.31397643810795], [-5.875489259189312, 43.314061306755896], [-5.8754496196106185, 43.31414369947666], [-5.87511835756037, 43.31405884311975], [-5.8751584901883644, 43.31397643810795]]], [[[-5.875246952408806, 43.31251665895334], [-5.875220834727428, 43.31250930254407], [-5.875209840464636, 43.312490580877956], [-5.875220543233111, 43.312471763551855], [-5.875246576563603, 43.31246426562359], [-5.875272006198792, 43.312472719807126], [-5.875281420638564, 43.31249193140923], [-5.875269214529771, 43.31251024632794], [-5.875246952408806, 43.31251665895334]]], [[[-5.875206204650089, 43.31240045311866], [-5.875140510859905, 43.31249511626718], [-5.875012254598007, 43.31244765075044], [-5.875077952787081, 43.31235307760323], [-5.875206204650089, 43.31240045311866]]], [[[-5.874833889536711, 43.31250634118587], [-5.874810273249587, 43.31249973211284], [-5.874800221827158, 43.312482697434014], [-5.874810020066862, 43.31246561364281], [-5.8748336199879185, 43.31245880729393], [-5.874856667139704, 43.312466421109455], [-5.874865257648428, 43.31248385268923], [-5.874854083469675, 43.31250052090099], [-5.874833889536711, 43.31250634118587]]], [[[-5.874756738922736, 43.31247577772944], [-5.8747331226551625, 43.31246916863985], [-5.874723071259449, 43.31245213395341], [-5.8747328695166825, 43.31243505016827], [-5.874756469435545, 43.31242824383539], [-5.874779516566748, 43.31243585766712], [-5.874788107048925, 43.312453289253526], [-5.87477693285382, 43.31246995745824], [-5.874756738922736, 43.31247577772944]]], [[[-5.874722301325428, 43.312391376891576], [-5.8746986850944225, 43.31238476779375], [-5.874688633723361, 43.31236773310338], [-5.874698431978093, 43.31235064932109], [-5.8747220318689815, 43.31234384299607], [-5.87474507896375, 43.312351456835856], [-5.874753669423022, 43.31236888842569], [-5.874742495232571, 43.31238555662709], [-5.874722301325428, 43.312391376891576]]], [[[-5.874686238786705, 43.31244765807368], [-5.8746626225370715, 43.31244104896897], [-5.874652571165802, 43.31242401427554], [-5.874662369439027, 43.31240693049596], [-5.8746859693558156, 43.31240012417772], [-5.874709016468132, 43.31240773802425], [-5.874717606926021, 43.31242516961671], [-5.874706432716008, 43.312441837814994], [-5.874686238786705, 43.31244765807368]]], [[[-5.874333835700962, 43.3121731684551], [-5.87431631808324, 43.312165145346945], [-5.874304508424766, 43.312152656800954], [-5.874300355887827, 43.31213781473719], [-5.874304344466536, 43.312123038041285], [-5.8743159601701675, 43.3121105005792], [-5.874333330038408, 43.312102320354846], [-5.87437758199103, 43.31209679547611], [-5.874401468700515, 43.31212482715808], [-5.874404393928531, 43.312139790125286], [-5.874399165315129, 43.31215441793427], [-5.874386538910169, 43.31216644058975], [-5.874368515067644, 43.3121738269176], [-5.874333835700962, 43.3121731684551]]], [[[-5.873899122730283, 43.31314959065932], [-5.8740155907795595, 43.31319024077447], [-5.8739867220924085, 43.313234365618165], [-5.873870249733637, 43.313193625543214], [-5.873899122730283, 43.31314959065932]]], [[[-5.873839830478596, 43.31072353575916], [-5.873781034487528, 43.31072915602671], [-5.873773338056374, 43.31068622079013], [-5.873832134007131, 43.310680600527654], [-5.873839830478596, 43.31072353575916]]], [[[-5.8738195259376225, 43.31067470486455], [-5.873784456409863, 43.31067882811954], [-5.873778003386638, 43.31064918741541], [-5.873812949743514, 43.31064506725966], [-5.8738195259376225, 43.31067470486455]]], [[[-5.873445146345718, 43.31095630674624], [-5.8734913201164884, 43.310968021415434], [-5.873493452286214, 43.31096355588684], [-5.8735959111386915, 43.31098961218438], [-5.873570690570308, 43.31104048818284], [-5.873468741223046, 43.31101477920944], [-5.873472780459731, 43.31100630400867], [-5.873426852973143, 43.31099458313996], [-5.873445146345718, 43.31095630674624]]], [[[-5.873546235363187, 43.31150507492829], [-5.873537196499928, 43.311530423124076], [-5.873515243540517, 43.31155123390556], [-5.873483918510864, 43.311564176798626], [-5.873459040741749, 43.31156741343016], [-5.873423572079377, 43.311563082928785], [-5.8733931917443085, 43.31154899029421], [-5.873372817330987, 43.311527442950556], [-5.873365438320097, 43.31150169719145], [-5.873372485551513, 43.31147594888648], [-5.873392667706087, 43.31145419222301], [-5.873422820691041, 43.31143992823529], [-5.873458238950999, 43.31143534612653], [-5.873493287003473, 43.3114412178587], [-5.873522371954543, 43.31145660358539], [-5.873541064613012, 43.31147909357914], [-5.873546235363187, 43.31150507492829]]], [[[-5.873335463777439, 43.31133929982281], [-5.873331419499741, 43.31135812965005], [-5.873350759035494, 43.31136034459835], [-5.8732826041337916, 43.311690521002156], [-5.873239890561878, 43.31168421164866], [-5.873304375112387, 43.31137294573384], [-5.87329111261861, 43.31137147838569], [-5.873299303153429, 43.31133336597407], [-5.873335463777439, 43.31133929982281]]], [[[-5.873041262316812, 43.31188062840777], [-5.872783084629385, 43.3118627178293], [-5.8728792700017305, 43.31112269909657], [-5.873137444557724, 43.311140609547685], [-5.873041262316812, 43.31188062840777]]], [[[-5.8728195100830956, 43.31075738167942], [-5.872932474227336, 43.31078920712867], [-5.872915718413453, 43.31082087193079], [-5.872802758456812, 43.31078913639914], [-5.8728195100830956, 43.31075738167942]]], [[[-5.872865126608431, 43.31257511630318], [-5.872937415975505, 43.3125784313393], [-5.872932578817971, 43.312632756510354], [-5.87286014078969, 43.31262890497343], [-5.872865126608431, 43.31257511630318]]], [[[-5.872712335591058, 43.311782200405816], [-5.87264800574157, 43.311777694726274], [-5.8726494633028485, 43.31176676334999], [-5.8725684182753275, 43.311760786947005], [-5.87258040414773, 43.311643614838026], [-5.8726378839323194, 43.31164667203081], [-5.872644697161875, 43.31157933155412], [-5.872737398993075, 43.31158933677554], [-5.872712335591058, 43.311782200405816]]]]}}, {"type": "Feature", "properties": {"ref": "6993101TN6969S", "uso_inspire": "servicios publicos", "estado": "funcional (functional)", "huella_m2": 301.8, "complejo": "C14", "suelo": "SU", "T10": false, "T100": false, "T500": true, "ZFP": false, "pct_T500": 100.0, "osm_cat": "sanitario + administrativo / publico", "osm_nombre": "Consultorio Local Soto de Ribera | Edificio Multiusos", "cat_uso": "Cultural", "cat_destino": "CULTURAL", "cat_sup_m2": 508.0, "cat_anio": "1970", "cat_dir": "PZ CULTURA 1 33172 RIBERA DE ARRIBA (ASTURIAS)", "cat_n_inmuebles": 1, "cat_aviso": "", "enlace": "https://www1.sedecatastro.gob.es/CYCBienInmueble/OVCListaBienes.aspx?rc1=6993101&rc2=TN6969S"}, "geometry": {"type": "Polygon", "coordinates": [[[-5.875456225371799, 43.308730558954466], [-5.875378130702208, 43.30863807267536], [-5.875491040023566, 43.308590392378505], [-5.875446945910097, 43.308539098979615], [-5.875586234938852, 43.3084808505628], [-5.875662588628563, 43.30857302035046], [-5.875571417964269, 43.30861105989344], [-5.875584144261965, 43.308627306897925], [-5.875559598779455, 43.308637558681085], [-5.875588966538324, 43.30867463621916], [-5.875456225371799, 43.308730558954466]]]}}, {"type": "Feature", "properties": {"ref": "6994808TN6969S", "uso_inspire": "comercial", "estado": "funcional (functional)", "huella_m2": 52.2, "complejo": "", "suelo": "SU", "T10": false, "T100": false, "T500": true, "ZFP": false, "pct_T500": 100.0, "osm_cat": "sanitario", "osm_nombre": "pharmacy", "cat_uso": "Comercial", "cat_destino": "COMERCIO", "cat_sup_m2": 37.0, "cat_anio": "1950", "cat_dir": "CL HUERTA,LA 3 33172 RIBERA DE ARRIBA (ASTURIAS)", "cat_n_inmuebles": 1, "cat_aviso": "", "enlace": "https://www1.sedecatastro.gob.es/CYCBienInmueble/OVCListaBienes.aspx?rc1=6994808&rc2=TN6969S"}, "geometry": {"type": "Polygon", "coordinates": [[[-5.875444498430217, 43.309205900775105], [-5.875404060536362, 43.309250407110376], [-5.875310590657422, 43.30920314714205], [-5.875353648603061, 43.30916190637131], [-5.875444498430217, 43.309205900775105]]]}}, {"type": "Feature", "properties": {"ref": "A00600400TP60B", "uso_inspire": "servicios publicos", "estado": "funcional (functional)", "huella_m2": 76.1, "complejo": "C18", "suelo": "nucleo rural", "T10": false, "T100": true, "T500": true, "ZFP": true, "pct_T500": 100.0, "osm_cat": "", "osm_nombre": "", "cat_uso": "Cultural", "cat_destino": "ENSEÑANZA", "cat_sup_m2": 152.0, "cat_anio": "1954", "cat_dir": "LG FERREROS 9(B) 33171 RIBERA DE ARRIBA (ASTURIAS)", "cat_n_inmuebles": 1, "cat_aviso": "", "enlace": "https://www1.sedecatastro.gob.es/CYCBienInmueble/OVCListaBienes.aspx?rc1=A006004&rc2=00TP60B"}, "geometry": {"type": "Polygon", "coordinates": [[[-5.8738361375899775, 43.316522869766295], [-5.873715524319888, 43.316585328479], [-5.873670291245026, 43.31653874513397], [-5.873790904474323, 43.316476286469864], [-5.8738361375899775, 43.316522869766295]]]}}, {"type": "Feature", "properties": {"ref": "A00501700TP60B", "uso_inspire": "servicios publicos", "estado": "funcional (functional)", "huella_m2": 3079.8, "complejo": "C20", "suelo": "SUR", "T10": false, "T100": false, "T500": true, "ZFP": false, "pct_T500": 21.5, "osm_cat": "", "osm_nombre": "", "cat_uso": "Deportivo", "cat_destino": "ALMACEN", "cat_sup_m2": 3080.0, "cat_anio": "1988", "cat_dir": "LG CARCABA,LA 4(A) 33171 RIBERA DE ARRIBA (ASTURIAS)", "cat_n_inmuebles": 1, "cat_aviso": "", "enlace": "https://www1.sedecatastro.gob.es/CYCBienInmueble/OVCListaBienes.aspx?rc1=A005017&rc2=00TP60B"}, "geometry": {"type": "Polygon", "coordinates": [[[-5.8753254910783745, 43.3198959988781], [-5.875110600370297, 43.32050601748363], [-5.874585411431907, 43.32040740023381], [-5.874800307158201, 43.31979738246796], [-5.8753254910783745, 43.3198959988781]]]}}, {"type": "Feature", "properties": {"ref": "A00600100TP60B", "uso_inspire": "servicios publicos", "estado": "funcional (functional)", "huella_m2": 308.2, "complejo": "C19", "suelo": "nucleo rural", "T10": false, "T100": false, "T500": true, "ZFP": false, "pct_T500": 100.0, "osm_cat": "religioso", "osm_nombre": "Iglesia de San Pedro de Ferreros", "cat_uso": "Religioso", "cat_destino": "RELIGIOSO", "cat_sup_m2": 308.0, "cat_anio": "1890", "cat_dir": "LG FERREROS 1(A) 33171 RIBERA DE ARRIBA (ASTURIAS)", "cat_n_inmuebles": 1, "cat_aviso": "", "enlace": "https://www1.sedecatastro.gob.es/CYCBienInmueble/OVCListaBienes.aspx?rc1=A006001&rc2=00TP60B"}, "geometry": {"type": "Polygon", "coordinates": [[[-5.872422421784852, 43.31705254522543], [-5.872155472745607, 43.317087076449035], [-5.872144752563025, 43.317042776502944], [-5.8721083498425815, 43.31704747299084], [-5.872095961159089, 43.31699655207678], [-5.872180900762645, 43.316985593598304], [-5.872170176344172, 43.31694120372136], [-5.8723025526760075, 43.31692419086932], [-5.872313272947137, 43.316968490798736], [-5.87239943565852, 43.316957321339316], [-5.872422421784852, 43.31705254522543]]]}}, {"type": "Feature", "properties": {"ref": "8091201TN6979S", "uso_inspire": "servicios publicos", "estado": "funcional (functional)", "huella_m2": 460.7, "complejo": "C12", "suelo": "SU", "T10": false, "T100": false, "T500": true, "ZFP": false, "pct_T500": 100.0, "osm_cat": "", "osm_nombre": "", "cat_uso": "Cultural", "cat_destino": "CULTURAL; SOPORT. 50%", "cat_sup_m2": 899.0, "cat_anio": "2007", "cat_dir": "LG SOTO DE REY 2(D) 33173 RIBERA DE ARRIBA (ASTURIAS)", "cat_n_inmuebles": 1, "cat_aviso": "", "enlace": "https://www1.sedecatastro.gob.es/CYCBienInmueble/OVCListaBienes.aspx?rc1=8091201&rc2=TN6979S"}, "geometry": {"type": "Polygon", "coordinates": [[[-5.86149560303271, 43.30755163746921], [-5.861513529377721, 43.30756055271967], [-5.861484067038062, 43.307592173857216], [-5.86146487963645, 43.307582659900774], [-5.861365809314362, 43.30768895559528], [-5.861322636582354, 43.3076675266615], [-5.861296580784086, 43.307695550932536], [-5.861229673294467, 43.307662290761336], [-5.8613139489194275, 43.30757176230093], [-5.861284032078318, 43.30755693450071], [-5.861398245536096, 43.30743441282952], [-5.861428667605266, 43.307449498068564], [-5.861510597886724, 43.30736154928226], [-5.861574978863485, 43.307393521961046], [-5.861546926868466, 43.307423667174156], [-5.861593258454433, 43.30744672767753], [-5.86149560303271, 43.30755163746921]]]}}, {"type": "Feature", "properties": {"ref": "8290309TN6989S", "uso_inspire": "sin dato", "estado": "sin dato", "huella_m2": 53.5, "complejo": "", "suelo": "SU", "T10": false, "T100": false, "T500": true, "ZFP": false, "pct_T500": 100.0, "osm_cat": "", "osm_nombre": "", "cat_uso": "Obras de urbanización y jardineria, suelos sin edificar", "cat_destino": "", "cat_sup_m2": "", "cat_anio": "", "cat_dir": "LG SOTO DE REY 14(A) Suelo 33173 RIBERA DE ARRIBA (ASTURIAS)", "cat_n_inmuebles": 1, "cat_aviso": "", "enlace": "https://www1.sedecatastro.gob.es/CYCBienInmueble/OVCListaBienes.aspx?rc1=8290309&rc2=TN6989S"}, "geometry": {"type": "Polygon", "coordinates": [[[-5.8599738466967795, 43.30668591409409], [-5.860079842164768, 43.3067009092924], [-5.8600656091264405, 43.306754928892026], [-5.859959609346775, 43.30673984374947], [-5.8599738466967795, 43.30668591409409]]]}}, {"type": "Feature", "properties": {"ref": "8290324TN6989S", "uso_inspire": "sin dato", "estado": "sin dato", "huella_m2": 97.0, "complejo": "", "suelo": "SU", "T10": false, "T100": false, "T500": true, "ZFP": false, "pct_T500": 100.0, "osm_cat": "", "osm_nombre": "", "cat_uso": "Obras de urbanización y jardineria, suelos sin edificar", "cat_destino": "", "cat_sup_m2": "", "cat_anio": "", "cat_dir": "LG SOTO DE REY 5 Suelo 33173 RIBERA DE ARRIBA (ASTURIAS)", "cat_n_inmuebles": 1, "cat_aviso": "", "enlace": "https://www1.sedecatastro.gob.es/CYCBienInmueble/OVCListaBienes.aspx?rc1=8290324&rc2=TN6989S"}, "geometry": {"type": "Polygon", "coordinates": [[[-5.860253755925249, 43.306888970901554], [-5.860313435357073, 43.306904854890355], [-5.86030474905653, 43.306927311987536], [-5.86035270411377, 43.306942949146666], [-5.860308163737191, 43.30701321404568], [-5.860200668388685, 43.30698466066619], [-5.860253755925249, 43.306888970901554]]]}}, {"type": "Feature", "properties": {"ref": "E00506300TN69H", "uso_inspire": "sin dato", "estado": "sin dato", "huella_m2": 36.9, "complejo": "", "suelo": "SNU", "T10": false, "T100": true, "T500": true, "ZFP": false, "pct_T500": 100.0, "osm_cat": "", "osm_nombre": "", "cat_uso": "Obras de urbanización y jardineria, suelos sin edificar", "cat_destino": "", "cat_sup_m2": "", "cat_anio": "", "cat_dir": "LG VEGALENCIA  Suelo 33173 RIBERA DE ARRIBA (ASTURIAS)", "cat_n_inmuebles": 1, "cat_aviso": "", "enlace": "https://www1.sedecatastro.gob.es/CYCBienInmueble/OVCListaBienes.aspx?rc1=E005063&rc2=00TN69H"}, "geometry": {"type": "Polygon", "coordinates": [[[-5.860278192727031, 43.30525000428733], [-5.8602650792096975, 43.305325245178594], [-5.860211206448096, 43.30532272173321], [-5.860223975916585, 43.305248029694035], [-5.860278192727031, 43.30525000428733]]]}}]}