{"type":"FeatureCollection","features":[{"type":"Feature","geometry":{"type":"Point","coordinates":[-5.86369,43.30586]},"properties":{"id":"alerta-33057-01","origen":"Alerta de Planeamiento","titulo":"VEGALENCIA","tipo":"Parcela","prioridad":"Alta","motivo":"solapa con inundación frecuente (T10)","nota":"Sector SU/SUR (RPGUR) que solapa con inundación frecuente (T10). Revisar si procede actualizar el planeamiento o condicionar la actuación."}},{"type":"Feature","geometry":{"type":"Point","coordinates":[-5.85951,43.30488]},"properties":{"id":"alerta-33057-02","origen":"Alerta de Planeamiento","titulo":"VEGALENCIA","tipo":"Parcela","prioridad":"Alta","motivo":"solapa con inundación frecuente (T10)","nota":"Sector SU/SUR (RPGUR) que solapa con inundación frecuente (T10). Revisar si procede actualizar el planeamiento o condicionar la actuación."}},{"type":"Feature","geometry":{"type":"Point","coordinates":[-5.8746,43.30905]},"properties":{"id":"alerta-33057-03","origen":"Alerta de Planeamiento","titulo":"SOTO DE RIBERA","tipo":"Parcela","prioridad":"Alta","motivo":"solapa con inundación frecuente (T10)","nota":"Sector SU/SUR (RPGUR) que solapa con inundación frecuente (T10). Revisar si procede actualizar el planeamiento o condicionar la actuación."}},{"type":"Feature","geometry":{"type":"Point","coordinates":[-5.87602,43.30883]},"properties":{"id":"alerta-33057-04","origen":"Alerta de Planeamiento","titulo":"SOTO DE RIBERA","tipo":"Parcela","prioridad":"Alta","motivo":"solapa con inundación frecuente (T10)","nota":"Sector SU/SUR (RPGUR) que solapa con inundación frecuente (T10). Revisar si procede actualizar el planeamiento o condicionar la actuación."}},{"type":"Feature","geometry":{"type":"Point","coordinates":[-5.87087,43.316]},"properties":{"id":"alerta-33057-05","origen":"Alerta de Planeamiento","titulo":"LAS SEGADAS","tipo":"Parcela","prioridad":"Media","motivo":"solapa con la inundación de T100 (referencia de la zona de flujo preferente); coincide con BIC: Cueva de entrecueves","nota":"Sector SU/SUR (RPGUR) que solapa con la inundación de T100 (referencia de la zona de flujo preferente); coincide con BIC: Cueva de entrecueves. Revisar si procede actualizar el planeamiento o condicionar la actuación."}},{"type":"Feature","geometry":{"type":"Point","coordinates":[-5.87063,43.31221]},"properties":{"id":"alerta-33057-06","origen":"Alerta de Planeamiento","titulo":"LAS SEGADAS","tipo":"Parcela","prioridad":"Media","motivo":"solapa con la inundación de T100 (referencia de la zona de flujo preferente); coincide con BIC: Cueva de entrecueves","nota":"Sector SU/SUR (RPGUR) que solapa con la inundación de T100 (referencia de la zona de flujo preferente); coincide con BIC: Cueva de entrecueves. Revisar si procede actualizar el planeamiento o condicionar la actuación."}},{"type":"Feature","geometry":{"type":"Point","coordinates":[-5.86207,43.30754]},"properties":{"id":"alerta-33057-07","origen":"Alerta de Planeamiento","titulo":"SOTO DEL REY","tipo":"Parcela","prioridad":"Baja","motivo":"solapa con la inundación de baja probabilidad (T500)","nota":"Sector SU/SUR (RPGUR) que solapa con la inundación de baja probabilidad (T500). Revisar si procede actualizar el planeamiento o condicionar la actuación."}},{"type":"Feature","geometry":{"type":"Point","coordinates":[-5.85888,43.3068]},"properties":{"id":"alerta-33057-08","origen":"Alerta de Planeamiento","titulo":"SAU SOTO DEL REY","tipo":"Parcela","prioridad":"Baja","motivo":"solapa con la inundación de baja probabilidad (T500)","nota":"Sector SU/SUR (RPGUR) que solapa con la inundación de baja probabilidad (T500). Revisar si procede actualizar el planeamiento o condicionar la actuación."}},{"type":"Feature","geometry":{"type":"Point","coordinates":[-5.86408,43.30382]},"properties":{"id":"alerta-33057-09","origen":"Alerta de Planeamiento","titulo":"SAU VEGALENCIA","tipo":"Parcela","prioridad":"Alta","motivo":"solapa con inundación frecuente (T10)","nota":"Sector SU/SUR (RPGUR) que solapa con inundación frecuente (T10). Revisar si procede actualizar el planeamiento o condicionar la actuación."}},{"type":"Feature","geometry":{"type":"Point","coordinates":[-5.87568,43.32032]},"properties":{"id":"alerta-33057-10","origen":"Alerta de Planeamiento","titulo":"SAU FERREROS - RMS","tipo":"Parcela","prioridad":"Baja","motivo":"solapa con la inundación de baja probabilidad (T500)","nota":"Sector SU/SUR (RPGUR) que solapa con la inundación de baja probabilidad (T500). Revisar si procede actualizar el planeamiento o condicionar la actuación."}},{"type":"Feature","geometry":{"type":"Point","coordinates":[-5.90895,43.30848]},"properties":{"id":"abandono-33057A01000177","origen":"Posible abandono agrícola","titulo":"Parcela 33057A01000177","tipo":"Abandono agrícola","prioridad":"Baja","refcat":"33057A01000177","motivo":"Tendencia NDVI de colonización por matorral (264 m²)","nota":"Indicio por satélite (tendencia NDVI), no confirmado. Pendiente de verificar en campo y con ortoimagen."}},{"type":"Feature","geometry":{"type":"Point","coordinates":[-5.93681,43.30033]},"properties":{"id":"abandono-33057A01200338","origen":"Posible abandono agrícola","titulo":"Parcela 33057A01200338","tipo":"Abandono agrícola","prioridad":"Baja","refcat":"33057A01200338","motivo":"Tendencia NDVI de colonización por matorral (1715 m²)","nota":"Indicio por satélite (tendencia NDVI), no confirmado. Pendiente de verificar en campo y con ortoimagen."}},{"type":"Feature","geometry":{"type":"Point","coordinates":[-5.92674,43.29767]},"properties":{"id":"abandono-33057A01200428","origen":"Posible abandono agrícola","titulo":"Parcela 33057A01200428","tipo":"Abandono agrícola","prioridad":"Baja","refcat":"33057A01200428","motivo":"Tendencia NDVI de colonización por matorral (828 m²)","nota":"Indicio por satélite (tendencia NDVI), no confirmado. Pendiente de verificar en campo y con ortoimagen."}},{"type":"Feature","geometry":{"type":"Point","coordinates":[-5.86082,43.30432]},"properties":{"id":"abandono-33057A00813080","origen":"Posible abandono agrícola","titulo":"Parcela 33057A00813080","tipo":"Abandono agrícola","prioridad":"Baja","refcat":"33057A00813080","motivo":"Tendencia NDVI de colonización por matorral (813 m²)","nota":"Indicio por satélite (tendencia NDVI), no confirmado. Pendiente de verificar en campo y con ortoimagen."}},{"type":"Feature","geometry":{"type":"Point","coordinates":[-5.93412,43.29592]},"properties":{"id":"abandono-33057A01200566","origen":"Posible abandono agrícola","titulo":"Parcela 33057A01200566","tipo":"Abandono agrícola","prioridad":"Baja","refcat":"33057A01200566","motivo":"Tendencia NDVI de colonización por matorral (799 m²)","nota":"Indicio por satélite (tendencia NDVI), no confirmado. Pendiente de verificar en campo y con ortoimagen."}},{"type":"Feature","geometry":{"type":"Point","coordinates":[-5.86073,43.30482]},"properties":{"id":"abandono-33057A00839081","origen":"Posible abandono agrícola","titulo":"Parcela 33057A00839081","tipo":"Abandono agrícola","prioridad":"Baja","refcat":"33057A00839081","motivo":"Tendencia NDVI de colonización por matorral (3382 m²)","nota":"Indicio por satélite (tendencia NDVI), no confirmado. Pendiente de verificar en campo y con ortoimagen."}},{"type":"Feature","geometry":{"type":"Point","coordinates":[-5.93408,43.29583]},"properties":{"id":"abandono-33057A01200567","origen":"Posible abandono agrícola","titulo":"Parcela 33057A01200567","tipo":"Abandono agrícola","prioridad":"Baja","refcat":"33057A01200567","motivo":"Tendencia NDVI de colonización por matorral (1277 m²)","nota":"Indicio por satélite (tendencia NDVI), no confirmado. Pendiente de verificar en campo y con ortoimagen."}},{"type":"Feature","geometry":{"type":"Point","coordinates":[-5.91094,43.30954]},"properties":{"id":"abandono-33057A01000471","origen":"Posible abandono agrícola","titulo":"Parcela 33057A01000471","tipo":"Abandono agrícola","prioridad":"Baja","refcat":"33057A01000471","motivo":"Tendencia NDVI de colonización por matorral (610 m²)","nota":"Indicio por satélite (tendencia NDVI), no confirmado. Pendiente de verificar en campo y con ortoimagen."}},{"type":"Feature","geometry":{"type":"Point","coordinates":[-5.90886,43.30847]},"properties":{"id":"abandono-33057A01000180","origen":"Posible abandono agrícola","titulo":"Parcela 33057A01000180","tipo":"Abandono agrícola","prioridad":"Baja","refcat":"33057A01000180","motivo":"Tendencia NDVI de colonización por matorral (559 m²)","nota":"Indicio por satélite (tendencia NDVI), no confirmado. Pendiente de verificar en campo y con ortoimagen."}},{"type":"Feature","geometry":{"type":"Point","coordinates":[-5.84563,43.29522]},"properties":{"id":"abandono-33057A00800419","origen":"Posible abandono agrícola","titulo":"Parcela 33057A00800419","tipo":"Abandono agrícola","prioridad":"Baja","refcat":"33057A00800419","motivo":"Tendencia NDVI de colonización por matorral (772 m²)","nota":"Indicio por satélite (tendencia NDVI), no confirmado. Pendiente de verificar en campo y con ortoimagen."}},{"type":"Feature","geometry":{"type":"Point","coordinates":[-5.93346,43.29677]},"properties":{"id":"abandono-33057A01200481","origen":"Posible abandono agrícola","titulo":"Parcela 33057A01200481","tipo":"Abandono agrícola","prioridad":"Baja","refcat":"33057A01200481","motivo":"Tendencia NDVI de colonización por matorral (2307 m²)","nota":"Indicio por satélite (tendencia NDVI), no confirmado. Pendiente de verificar en campo y con ortoimagen."}},{"type":"Feature","geometry":{"type":"Point","coordinates":[-5.93706,43.30018]},"properties":{"id":"abandono-33057A01200337","origen":"Posible abandono agrícola","titulo":"Parcela 33057A01200337","tipo":"Abandono agrícola","prioridad":"Baja","refcat":"33057A01200337","motivo":"Tendencia NDVI de colonización por matorral (2079 m²)","nota":"Indicio por satélite (tendencia NDVI), no confirmado. Pendiente de verificar en campo y con ortoimagen."}},{"type":"Feature","geometry":{"type":"Point","coordinates":[-5.93373,43.29732]},"properties":{"id":"abandono-33057A01211478","origen":"Posible abandono agrícola","titulo":"Parcela 33057A01211478","tipo":"Abandono agrícola","prioridad":"Baja","refcat":"33057A01211478","motivo":"Tendencia NDVI de colonización por matorral (1129 m²)","nota":"Indicio por satélite (tendencia NDVI), no confirmado. Pendiente de verificar en campo y con ortoimagen."}},{"type":"Feature","geometry":{"type":"Point","coordinates":[-5.84556,43.29532]},"properties":{"id":"abandono-33057A00800418","origen":"Posible abandono agrícola","titulo":"Parcela 33057A00800418","tipo":"Abandono agrícola","prioridad":"Baja","refcat":"33057A00800418","motivo":"Tendencia NDVI de colonización por matorral (772 m²)","nota":"Indicio por satélite (tendencia NDVI), no confirmado. Pendiente de verificar en campo y con ortoimagen."}},{"type":"Feature","geometry":{"type":"Point","coordinates":[-5.84095,43.29665]},"properties":{"id":"abandono-33057A00700090","origen":"Posible abandono agrícola","titulo":"Parcela 33057A00700090","tipo":"Abandono agrícola","prioridad":"Baja","refcat":"33057A00700090","motivo":"Tendencia NDVI de colonización por matorral (1501 m²)","nota":"Indicio por satélite (tendencia NDVI), no confirmado. Pendiente de verificar en campo y con ortoimagen."}},{"type":"Feature","geometry":{"type":"Point","coordinates":[-5.84219,43.29734]},"properties":{"id":"abandono-33057A00700092","origen":"Posible abandono agrícola","titulo":"Parcela 33057A00700092","tipo":"Abandono agrícola","prioridad":"Baja","refcat":"33057A00700092","motivo":"Tendencia NDVI de colonización por matorral (2222 m²)","nota":"Indicio por satélite (tendencia NDVI), no confirmado. Pendiente de verificar en campo y con ortoimagen."}},{"type":"Feature","geometry":{"type":"Point","coordinates":[-5.90919,43.30951]},"properties":{"id":"abandono-33057A01000229","origen":"Posible abandono agrícola","titulo":"Parcela 33057A01000229","tipo":"Abandono agrícola","prioridad":"Baja","refcat":"33057A01000229","motivo":"Tendencia NDVI de colonización por matorral (502 m²)","nota":"Indicio por satélite (tendencia NDVI), no confirmado. Pendiente de verificar en campo y con ortoimagen."}},{"type":"Feature","geometry":{"type":"Point","coordinates":[-5.90843,43.3089]},"properties":{"id":"abandono-33057A01000189","origen":"Posible abandono agrícola","titulo":"Parcela 33057A01000189","tipo":"Abandono agrícola","prioridad":"Baja","refcat":"33057A01000189","motivo":"Tendencia NDVI de colonización por matorral (1607 m²)","nota":"Indicio por satélite (tendencia NDVI), no confirmado. Pendiente de verificar en campo y con ortoimagen."}},{"type":"Feature","geometry":{"type":"Point","coordinates":[-5.86162,43.30494]},"properties":{"id":"abandono-33057A00836081","origen":"Posible abandono agrícola","titulo":"Parcela 33057A00836081","tipo":"Abandono agrícola","prioridad":"Baja","refcat":"33057A00836081","motivo":"Tendencia NDVI de colonización por matorral (725 m²)","nota":"Indicio por satélite (tendencia NDVI), no confirmado. Pendiente de verificar en campo y con ortoimagen."}},{"type":"Feature","geometry":{"type":"Point","coordinates":[-5.90902,43.31078]},"properties":{"id":"abandono-33057A01000053","origen":"Posible abandono agrícola","titulo":"Parcela 33057A01000053","tipo":"Abandono agrícola","prioridad":"Baja","refcat":"33057A01000053","motivo":"Tendencia NDVI de colonización por matorral (259 m²)","nota":"Indicio por satélite (tendencia NDVI), no confirmado. Pendiente de verificar en campo y con ortoimagen."}},{"type":"Feature","geometry":{"type":"Point","coordinates":[-5.91039,43.3117]},"properties":{"id":"abandono-33057A01000032","origen":"Posible abandono agrícola","titulo":"Parcela 33057A01000032","tipo":"Abandono agrícola","prioridad":"Baja","refcat":"33057A01000032","motivo":"Tendencia NDVI de colonización por matorral (3425 m²)","nota":"Indicio por satélite (tendencia NDVI), no confirmado. Pendiente de verificar en campo y con ortoimagen."}},{"type":"Feature","geometry":{"type":"Point","coordinates":[-5.93586,43.30138]},"properties":{"id":"abandono-33057A01200358","origen":"Posible abandono agrícola","titulo":"Parcela 33057A01200358","tipo":"Abandono agrícola","prioridad":"Baja","refcat":"33057A01200358","motivo":"Tendencia NDVI de colonización por matorral (1238 m²)","nota":"Indicio por satélite (tendencia NDVI), no confirmado. Pendiente de verificar en campo y con ortoimagen."}},{"type":"Feature","geometry":{"type":"Point","coordinates":[-5.8433,43.29729]},"properties":{"id":"abandono-33057A00700094","origen":"Posible abandono agrícola","titulo":"Parcela 33057A00700094","tipo":"Abandono agrícola","prioridad":"Baja","refcat":"33057A00700094","motivo":"Tendencia NDVI de colonización por matorral (2579 m²)","nota":"Indicio por satélite (tendencia NDVI), no confirmado. Pendiente de verificar en campo y con ortoimagen."}},{"type":"Feature","geometry":{"type":"Point","coordinates":[-5.84579,43.29517]},"properties":{"id":"abandono-33057A00800420","origen":"Posible abandono agrícola","titulo":"Parcela 33057A00800420","tipo":"Abandono agrícola","prioridad":"Baja","refcat":"33057A00800420","motivo":"Tendencia NDVI de colonización por matorral (669 m²)","nota":"Indicio por satélite (tendencia NDVI), no confirmado. Pendiente de verificar en campo y con ortoimagen."}},{"type":"Feature","geometry":{"type":"Point","coordinates":[-5.87631,43.30823]},"properties":{"id":"abandono-33057A01300087","origen":"Posible abandono agrícola","titulo":"Parcela 33057A01300087","tipo":"Abandono agrícola","prioridad":"Baja","refcat":"33057A01300087","motivo":"Tendencia NDVI de colonización por matorral (1345 m²)","nota":"Indicio por satélite (tendencia NDVI), no confirmado. Pendiente de verificar en campo y con ortoimagen."}},{"type":"Feature","geometry":{"type":"Point","coordinates":[-5.93416,43.29599]},"properties":{"id":"abandono-33057A01200565","origen":"Posible abandono agrícola","titulo":"Parcela 33057A01200565","tipo":"Abandono agrícola","prioridad":"Baja","refcat":"33057A01200565","motivo":"Tendencia NDVI de colonización por matorral (1029 m²)","nota":"Indicio por satélite (tendencia NDVI), no confirmado. Pendiente de verificar en campo y con ortoimagen."}},{"type":"Feature","geometry":{"type":"Point","coordinates":[-5.93426,43.29622]},"properties":{"id":"abandono-33057A01200563","origen":"Posible abandono agrícola","titulo":"Parcela 33057A01200563","tipo":"Abandono agrícola","prioridad":"Baja","refcat":"33057A01200563","motivo":"Tendencia NDVI de colonización por matorral (1448 m²)","nota":"Indicio por satélite (tendencia NDVI), no confirmado. Pendiente de verificar en campo y con ortoimagen."}},{"type":"Feature","geometry":{"type":"Point","coordinates":[-5.927,43.29855]},"properties":{"id":"abandono-33057A01200422","origen":"Posible abandono agrícola","titulo":"Parcela 33057A01200422","tipo":"Abandono agrícola","prioridad":"Baja","refcat":"33057A01200422","motivo":"Tendencia NDVI de colonización por matorral (1817 m²)","nota":"Indicio por satélite (tendencia NDVI), no confirmado. Pendiente de verificar en campo y con ortoimagen."}},{"type":"Feature","geometry":{"type":"Point","coordinates":[-5.85914,43.29478]},"properties":{"id":"abandono-33057A00800304","origen":"Posible abandono agrícola","titulo":"Parcela 33057A00800304","tipo":"Abandono agrícola","prioridad":"Baja","refcat":"33057A00800304","motivo":"Tendencia NDVI de colonización por matorral (1390 m²)","nota":"Indicio por satélite (tendencia NDVI), no confirmado. Pendiente de verificar en campo y con ortoimagen."}},{"type":"Feature","geometry":{"type":"Point","coordinates":[-5.91044,43.3095]},"properties":{"id":"abandono-33057A01000018","origen":"Posible abandono agrícola","titulo":"Parcela 33057A01000018","tipo":"Abandono agrícola","prioridad":"Baja","refcat":"33057A01000018","motivo":"Tendencia NDVI de colonización por matorral (517 m²)","nota":"Indicio por satélite (tendencia NDVI), no confirmado. Pendiente de verificar en campo y con ortoimagen."}},{"type":"Feature","geometry":{"type":"Point","coordinates":[-5.9266,43.29854]},"properties":{"id":"abandono-33057A01200421","origen":"Posible abandono agrícola","titulo":"Parcela 33057A01200421","tipo":"Abandono agrícola","prioridad":"Baja","refcat":"33057A01200421","motivo":"Tendencia NDVI de colonización por matorral (1868 m²)","nota":"Indicio por satélite (tendencia NDVI), no confirmado. Pendiente de verificar en campo y con ortoimagen."}},{"type":"Feature","geometry":{"type":"Point","coordinates":[-5.87807,43.32116]},"properties":{"id":"abandono-33057A00300083","origen":"Posible abandono agrícola","titulo":"Parcela 33057A00300083","tipo":"Abandono agrícola","prioridad":"Baja","refcat":"33057A00300083","motivo":"Tendencia NDVI de colonización por matorral (152 m²)","nota":"Indicio por satélite (tendencia NDVI), no confirmado. Pendiente de verificar en campo y con ortoimagen."}},{"type":"Feature","geometry":{"type":"Point","coordinates":[-5.89199,43.3153]},"properties":{"id":"abandono-33057A00200407","origen":"Posible abandono agrícola","titulo":"Parcela 33057A00200407","tipo":"Abandono agrícola","prioridad":"Baja","refcat":"33057A00200407","motivo":"Tendencia NDVI de colonización por matorral (1077 m²)","nota":"Indicio por satélite (tendencia NDVI), no confirmado. Pendiente de verificar en campo y con ortoimagen."}},{"type":"Feature","geometry":{"type":"Point","coordinates":[-5.84013,43.29711]},"properties":{"id":"abandono-33057A00700167","origen":"Posible abandono agrícola","titulo":"Parcela 33057A00700167","tipo":"Abandono agrícola","prioridad":"Baja","refcat":"33057A00700167","motivo":"Tendencia NDVI de colonización por matorral (2255 m²)","nota":"Indicio por satélite (tendencia NDVI), no confirmado. Pendiente de verificar en campo y con ortoimagen."}},{"type":"Feature","geometry":{"type":"Point","coordinates":[-5.86152,43.30495]},"properties":{"id":"abandono-33057A00837081","origen":"Posible abandono agrícola","titulo":"Parcela 33057A00837081","tipo":"Abandono agrícola","prioridad":"Baja","refcat":"33057A00837081","motivo":"Tendencia NDVI de colonización por matorral (693 m²)","nota":"Indicio por satélite (tendencia NDVI), no confirmado. Pendiente de verificar en campo y con ortoimagen."}},{"type":"Feature","geometry":{"type":"Point","coordinates":[-5.88541,43.30896]},"properties":{"id":"abandono-33057A01300028","origen":"Posible abandono agrícola","titulo":"Parcela 33057A01300028","tipo":"Abandono agrícola","prioridad":"Baja","refcat":"33057A01300028","motivo":"Tendencia NDVI de colonización por matorral (203 m²)","nota":"Indicio por satélite (tendencia NDVI), no confirmado. Pendiente de verificar en campo y con ortoimagen."}},{"type":"Feature","geometry":{"type":"Point","coordinates":[-5.90838,43.3101]},"properties":{"id":"abandono-33057A01000064","origen":"Posible abandono agrícola","titulo":"Parcela 33057A01000064","tipo":"Abandono agrícola","prioridad":"Baja","refcat":"33057A01000064","motivo":"Tendencia NDVI de colonización por matorral (975 m²)","nota":"Indicio por satélite (tendencia NDVI), no confirmado. Pendiente de verificar en campo y con ortoimagen."}},{"type":"Feature","geometry":{"type":"Point","coordinates":[-5.92709,43.29785]},"properties":{"id":"abandono-33057A01209030","origen":"Posible abandono agrícola","titulo":"Parcela 33057A01209030","tipo":"Abandono agrícola","prioridad":"Baja","refcat":"33057A01209030","motivo":"Tendencia NDVI de colonización por matorral (668 m²)","nota":"Indicio por satélite (tendencia NDVI), no confirmado. Pendiente de verificar en campo y con ortoimagen."}},{"type":"Feature","geometry":{"type":"Point","coordinates":[-5.90815,43.30888]},"properties":{"id":"abandono-33057A01000202","origen":"Posible abandono agrícola","titulo":"Parcela 33057A01000202","tipo":"Abandono agrícola","prioridad":"Baja","refcat":"33057A01000202","motivo":"Tendencia NDVI de colonización por matorral (399 m²)","nota":"Indicio por satélite (tendencia NDVI), no confirmado. Pendiente de verificar en campo y con ortoimagen."}},{"type":"Feature","geometry":{"type":"Point","coordinates":[-5.85891,43.30307]},"properties":{"id":"abandono-33057A00813081","origen":"Posible abandono agrícola","titulo":"Parcela 33057A00813081","tipo":"Abandono agrícola","prioridad":"Baja","refcat":"33057A00813081","motivo":"Tendencia NDVI de colonización por matorral (803 m²)","nota":"Indicio por satélite (tendencia NDVI), no confirmado. Pendiente de verificar en campo y con ortoimagen."}},{"type":"Feature","geometry":{"type":"Point","coordinates":[-5.89982,43.31297]},"properties":{"id":"abandono-33057A00200256","origen":"Posible abandono agrícola","titulo":"Parcela 33057A00200256","tipo":"Abandono agrícola","prioridad":"Baja","refcat":"33057A00200256","motivo":"Tendencia NDVI de colonización por matorral (883 m²)","nota":"Indicio por satélite (tendencia NDVI), no confirmado. Pendiente de verificar en campo y con ortoimagen."}},{"type":"Feature","geometry":{"type":"Point","coordinates":[-5.87519,43.30997]},"properties":{"id":"abandono-33057A01000267","origen":"Posible abandono agrícola","titulo":"Parcela 33057A01000267","tipo":"Abandono agrícola","prioridad":"Baja","refcat":"33057A01000267","motivo":"Tendencia NDVI de colonización por matorral (309 m²)","nota":"Indicio por satélite (tendencia NDVI), no confirmado. Pendiente de verificar en campo y con ortoimagen."}},{"type":"Feature","geometry":{"type":"Point","coordinates":[-5.87508,43.31007]},"properties":{"id":"abandono-33057A01000268","origen":"Posible abandono agrícola","titulo":"Parcela 33057A01000268","tipo":"Abandono agrícola","prioridad":"Baja","refcat":"33057A01000268","motivo":"Tendencia NDVI de colonización por matorral (329 m²)","nota":"Indicio por satélite (tendencia NDVI), no confirmado. Pendiente de verificar en campo y con ortoimagen."}},{"type":"Feature","geometry":{"type":"Point","coordinates":[-5.90933,43.31155]},"properties":{"id":"abandono-33057A01000038","origen":"Posible abandono agrícola","titulo":"Parcela 33057A01000038","tipo":"Abandono agrícola","prioridad":"Baja","refcat":"33057A01000038","motivo":"Tendencia NDVI de colonización por matorral (1044 m²)","nota":"Indicio por satélite (tendencia NDVI), no confirmado. Pendiente de verificar en campo y con ortoimagen."}},{"type":"Feature","geometry":{"type":"Point","coordinates":[-5.90948,43.31191]},"properties":{"id":"abandono-33057A01000036","origen":"Posible abandono agrícola","titulo":"Parcela 33057A01000036","tipo":"Abandono agrícola","prioridad":"Baja","refcat":"33057A01000036","motivo":"Tendencia NDVI de colonización por matorral (829 m²)","nota":"Indicio por satélite (tendencia NDVI), no confirmado. Pendiente de verificar en campo y con ortoimagen."}},{"type":"Feature","geometry":{"type":"Point","coordinates":[-5.90024,43.31317]},"properties":{"id":"abandono-33057A00200242","origen":"Posible abandono agrícola","titulo":"Parcela 33057A00200242","tipo":"Abandono agrícola","prioridad":"Baja","refcat":"33057A00200242","motivo":"Tendencia NDVI de colonización por matorral (1019 m²)","nota":"Indicio por satélite (tendencia NDVI), no confirmado. Pendiente de verificar en campo y con ortoimagen."}},{"type":"Feature","geometry":{"type":"Point","coordinates":[-5.86139,43.30495]},"properties":{"id":"abandono-33057A00800608","origen":"Posible abandono agrícola","titulo":"Parcela 33057A00800608","tipo":"Abandono agrícola","prioridad":"Baja","refcat":"33057A00800608","motivo":"Tendencia NDVI de colonización por matorral (1185 m²)","nota":"Indicio por satélite (tendencia NDVI), no confirmado. Pendiente de verificar en campo y con ortoimagen."}},{"type":"Feature","geometry":{"type":"Point","coordinates":[-5.90946,43.30908]},"properties":{"id":"abandono-33057A01000171","origen":"Posible abandono agrícola","titulo":"Parcela 33057A01000171","tipo":"Abandono agrícola","prioridad":"Baja","refcat":"33057A01000171","motivo":"Tendencia NDVI de colonización por matorral (1063 m²)","nota":"Indicio por satélite (tendencia NDVI), no confirmado. Pendiente de verificar en campo y con ortoimagen."}},{"type":"Feature","geometry":{"type":"Point","coordinates":[-5.93535,43.30317]},"properties":{"id":"abandono-33057A00100238","origen":"Posible abandono agrícola","titulo":"Parcela 33057A00100238","tipo":"Abandono agrícola","prioridad":"Baja","refcat":"33057A00100238","motivo":"Tendencia NDVI de colonización por matorral (972 m²)","nota":"Indicio por satélite (tendencia NDVI), no confirmado. Pendiente de verificar en campo y con ortoimagen."}},{"type":"Feature","geometry":{"type":"Point","coordinates":[-5.90335,43.30924]},"properties":{"id":"abandono-33057A01000116","origen":"Posible abandono agrícola","titulo":"Parcela 33057A01000116","tipo":"Abandono agrícola","prioridad":"Baja","refcat":"33057A01000116","motivo":"Tendencia NDVI de colonización por matorral (4011 m²)","nota":"Indicio por satélite (tendencia NDVI), no confirmado. Pendiente de verificar en campo y con ortoimagen."}},{"type":"Feature","geometry":{"type":"Point","coordinates":[-5.87729,43.3201]},"properties":{"id":"abandono-33057A00311097","origen":"Posible abandono agrícola","titulo":"Parcela 33057A00311097","tipo":"Abandono agrícola","prioridad":"Baja","refcat":"33057A00311097","motivo":"Tendencia NDVI de colonización por matorral (226 m²)","nota":"Indicio por satélite (tendencia NDVI), no confirmado. Pendiente de verificar en campo y con ortoimagen."}},{"type":"Feature","geometry":{"type":"Point","coordinates":[-5.85867,43.29477]},"properties":{"id":"abandono-33057A00800306","origen":"Posible abandono agrícola","titulo":"Parcela 33057A00800306","tipo":"Abandono agrícola","prioridad":"Baja","refcat":"33057A00800306","motivo":"Tendencia NDVI de colonización por matorral (1639 m²)","nota":"Indicio por satélite (tendencia NDVI), no confirmado. Pendiente de verificar en campo y con ortoimagen."}},{"type":"Feature","geometry":{"type":"Point","coordinates":[-5.87529,43.30988]},"properties":{"id":"abandono-33057A01000345","origen":"Posible abandono agrícola","titulo":"Parcela 33057A01000345","tipo":"Abandono agrícola","prioridad":"Baja","refcat":"33057A01000345","motivo":"Tendencia NDVI de colonización por matorral (245 m²)","nota":"Indicio por satélite (tendencia NDVI), no confirmado. Pendiente de verificar en campo y con ortoimagen."}},{"type":"Feature","geometry":{"type":"Point","coordinates":[-5.90995,43.30954]},"properties":{"id":"abandono-33057A01000472","origen":"Posible abandono agrícola","titulo":"Parcela 33057A01000472","tipo":"Abandono agrícola","prioridad":"Baja","refcat":"33057A01000472","motivo":"Tendencia NDVI de colonización por matorral (1153 m²)","nota":"Indicio por satélite (tendencia NDVI), no confirmado. Pendiente de verificar en campo y con ortoimagen."}},{"type":"Feature","geometry":{"type":"Point","coordinates":[-5.86105,43.3048]},"properties":{"id":"abandono-33057A00814080","origen":"Posible abandono agrícola","titulo":"Parcela 33057A00814080","tipo":"Abandono agrícola","prioridad":"Baja","refcat":"33057A00814080","motivo":"Tendencia NDVI de colonización por matorral (2305 m²)","nota":"Indicio por satélite (tendencia NDVI), no confirmado. Pendiente de verificar en campo y con ortoimagen."}},{"type":"Feature","geometry":{"type":"Point","coordinates":[-5.89306,43.31305]},"properties":{"id":"abandono-33057A00200341","origen":"Posible abandono agrícola","titulo":"Parcela 33057A00200341","tipo":"Abandono agrícola","prioridad":"Baja","refcat":"33057A00200341","motivo":"Tendencia NDVI de colonización por matorral (926 m²)","nota":"Indicio por satélite (tendencia NDVI), no confirmado. Pendiente de verificar en campo y con ortoimagen."}},{"type":"Feature","geometry":{"type":"Point","coordinates":[-5.89301,43.31666]},"properties":{"id":"abandono-33057A00300252","origen":"Posible abandono agrícola","titulo":"Parcela 33057A00300252","tipo":"Abandono agrícola","prioridad":"Baja","refcat":"33057A00300252","motivo":"Tendencia NDVI de colonización por matorral (1190 m²)","nota":"Indicio por satélite (tendencia NDVI), no confirmado. Pendiente de verificar en campo y con ortoimagen."}},{"type":"Feature","geometry":{"type":"Point","coordinates":[-5.89287,43.31306]},"properties":{"id":"abandono-33057A00200340","origen":"Posible abandono agrícola","titulo":"Parcela 33057A00200340","tipo":"Abandono agrícola","prioridad":"Baja","refcat":"33057A00200340","motivo":"Tendencia NDVI de colonización por matorral (448 m²)","nota":"Indicio por satélite (tendencia NDVI), no confirmado. Pendiente de verificar en campo y con ortoimagen."}},{"type":"Feature","geometry":{"type":"Point","coordinates":[-5.90958,43.30913]},"properties":{"id":"abandono-33057A01000170","origen":"Posible abandono agrícola","titulo":"Parcela 33057A01000170","tipo":"Abandono agrícola","prioridad":"Baja","refcat":"33057A01000170","motivo":"Tendencia NDVI de colonización por matorral (327 m²)","nota":"Indicio por satélite (tendencia NDVI), no confirmado. Pendiente de verificar en campo y con ortoimagen."}},{"type":"Feature","geometry":{"type":"Point","coordinates":[-5.87452,43.31962]},"properties":{"id":"abandono-33057A00400051","origen":"Posible abandono agrícola","titulo":"Parcela 33057A00400051","tipo":"Abandono agrícola","prioridad":"Baja","refcat":"33057A00400051","motivo":"Tendencia NDVI de colonización por matorral (2166 m²)","nota":"Indicio por satélite (tendencia NDVI), no confirmado. Pendiente de verificar en campo y con ortoimagen."}},{"type":"Feature","geometry":{"type":"Point","coordinates":[-5.91002,43.30875]},"properties":{"id":"abandono-33057A01000168","origen":"Posible abandono agrícola","titulo":"Parcela 33057A01000168","tipo":"Abandono agrícola","prioridad":"Baja","refcat":"33057A01000168","motivo":"Tendencia NDVI de colonización por matorral (340 m²)","nota":"Indicio por satélite (tendencia NDVI), no confirmado. Pendiente de verificar en campo y con ortoimagen."}},{"type":"Feature","geometry":{"type":"Point","coordinates":[-5.88382,43.30423]},"properties":{"id":"abandono-33057A01300137","origen":"Posible abandono agrícola","titulo":"Parcela 33057A01300137","tipo":"Abandono agrícola","prioridad":"Baja","refcat":"33057A01300137","motivo":"Tendencia NDVI de colonización por matorral (799 m²)","nota":"Indicio por satélite (tendencia NDVI), no confirmado. Pendiente de verificar en campo y con ortoimagen."}},{"type":"Feature","geometry":{"type":"Point","coordinates":[-5.85892,43.29484]},"properties":{"id":"abandono-33057A00800305","origen":"Posible abandono agrícola","titulo":"Parcela 33057A00800305","tipo":"Abandono agrícola","prioridad":"Baja","refcat":"33057A00800305","motivo":"Tendencia NDVI de colonización por matorral (1527 m²)","nota":"Indicio por satélite (tendencia NDVI), no confirmado. Pendiente de verificar en campo y con ortoimagen."}},{"type":"Feature","geometry":{"type":"Point","coordinates":[-5.90802,43.30843]},"properties":{"id":"abandono-33057A01000204","origen":"Posible abandono agrícola","titulo":"Parcela 33057A01000204","tipo":"Abandono agrícola","prioridad":"Baja","refcat":"33057A01000204","motivo":"Tendencia NDVI de colonización por matorral (195 m²)","nota":"Indicio por satélite (tendencia NDVI), no confirmado. Pendiente de verificar en campo y con ortoimagen."}},{"type":"Feature","geometry":{"type":"Point","coordinates":[-5.90674,43.30862]},"properties":{"id":"abandono-33057A01000224","origen":"Posible abandono agrícola","titulo":"Parcela 33057A01000224","tipo":"Abandono agrícola","prioridad":"Baja","refcat":"33057A01000224","motivo":"Tendencia NDVI de colonización por matorral (1253 m²)","nota":"Indicio por satélite (tendencia NDVI), no confirmado. Pendiente de verificar en campo y con ortoimagen."}},{"type":"Feature","geometry":{"type":"Point","coordinates":[-5.90895,43.31019]},"properties":{"id":"abandono-33057A01000055","origen":"Posible abandono agrícola","titulo":"Parcela 33057A01000055","tipo":"Abandono agrícola","prioridad":"Baja","refcat":"33057A01000055","motivo":"Tendencia NDVI de colonización por matorral (1103 m²)","nota":"Indicio por satélite (tendencia NDVI), no confirmado. Pendiente de verificar en campo y con ortoimagen."}},{"type":"Feature","geometry":{"type":"Point","coordinates":[-5.90661,43.30861]},"properties":{"id":"abandono-33057A01000226","origen":"Posible abandono agrícola","titulo":"Parcela 33057A01000226","tipo":"Abandono agrícola","prioridad":"Baja","refcat":"33057A01000226","motivo":"Tendencia NDVI de colonización por matorral (509 m²)","nota":"Indicio por satélite (tendencia NDVI), no confirmado. Pendiente de verificar en campo y con ortoimagen."}},{"type":"Feature","geometry":{"type":"Point","coordinates":[-5.90874,43.3116]},"properties":{"id":"abandono-33057A01000072","origen":"Posible abandono agrícola","titulo":"Parcela 33057A01000072","tipo":"Abandono agrícola","prioridad":"Baja","refcat":"33057A01000072","motivo":"Tendencia NDVI de colonización por matorral (509 m²)","nota":"Indicio por satélite (tendencia NDVI), no confirmado. Pendiente de verificar en campo y con ortoimagen."}},{"type":"Feature","geometry":{"type":"Point","coordinates":[-5.93747,43.30279]},"properties":{"id":"abandono-33057A00100271","origen":"Posible abandono agrícola","titulo":"Parcela 33057A00100271","tipo":"Abandono agrícola","prioridad":"Baja","refcat":"33057A00100271","motivo":"Tendencia NDVI de colonización por matorral (3208 m²)","nota":"Indicio por satélite (tendencia NDVI), no confirmado. Pendiente de verificar en campo y con ortoimagen."}},{"type":"Feature","geometry":{"type":"Point","coordinates":[-5.89826,43.31275]},"properties":{"id":"abandono-33057A00200192","origen":"Posible abandono agrícola","titulo":"Parcela 33057A00200192","tipo":"Abandono agrícola","prioridad":"Baja","refcat":"33057A00200192","motivo":"Tendencia NDVI de colonización por matorral (1523 m²)","nota":"Indicio por satélite (tendencia NDVI), no confirmado. Pendiente de verificar en campo y con ortoimagen."}},{"type":"Feature","geometry":{"type":"Point","coordinates":[-5.93168,43.30469]},"properties":{"id":"abandono-33057A00100082","origen":"Posible abandono agrícola","titulo":"Parcela 33057A00100082","tipo":"Abandono agrícola","prioridad":"Baja","refcat":"33057A00100082","motivo":"Tendencia NDVI de colonización por matorral (973 m²)","nota":"Indicio por satélite (tendencia NDVI), no confirmado. Pendiente de verificar en campo y con ortoimagen."}},{"type":"Feature","geometry":{"type":"Point","coordinates":[-5.90879,43.31028]},"properties":{"id":"abandono-33057A01000056","origen":"Posible abandono agrícola","titulo":"Parcela 33057A01000056","tipo":"Abandono agrícola","prioridad":"Baja","refcat":"33057A01000056","motivo":"Tendencia NDVI de colonización por matorral (647 m²)","nota":"Indicio por satélite (tendencia NDVI), no confirmado. Pendiente de verificar en campo y con ortoimagen."}},{"type":"Feature","geometry":{"type":"Point","coordinates":[-5.84155,43.29718]},"properties":{"id":"abandono-33057A00700180","origen":"Posible abandono agrícola","titulo":"Parcela 33057A00700180","tipo":"Abandono agrícola","prioridad":"Baja","refcat":"33057A00700180","motivo":"Tendencia NDVI de colonización por matorral (1481 m²)","nota":"Indicio por satélite (tendencia NDVI), no confirmado. Pendiente de verificar en campo y con ortoimagen."}},{"type":"Feature","geometry":{"type":"Point","coordinates":[-5.8584,43.30487]},"properties":{"id":"abandono-33057A00800621","origen":"Posible abandono agrícola","titulo":"Parcela 33057A00800621","tipo":"Abandono agrícola","prioridad":"Baja","refcat":"33057A00800621","motivo":"Tendencia NDVI de colonización por matorral (1314 m²)","nota":"Indicio por satélite (tendencia NDVI), no confirmado. Pendiente de verificar en campo y con ortoimagen."}},{"type":"Feature","geometry":{"type":"Point","coordinates":[-5.93368,43.30407]},"properties":{"id":"abandono-33057A00111111","origen":"Posible abandono agrícola","titulo":"Parcela 33057A00111111","tipo":"Abandono agrícola","prioridad":"Baja","refcat":"33057A00111111","motivo":"Tendencia NDVI de colonización por matorral (869 m²)","nota":"Indicio por satélite (tendencia NDVI), no confirmado. Pendiente de verificar en campo y con ortoimagen."}},{"type":"Feature","geometry":{"type":"Point","coordinates":[-5.84348,43.29787]},"properties":{"id":"abandono-33057A00700119","origen":"Posible abandono agrícola","titulo":"Parcela 33057A00700119","tipo":"Abandono agrícola","prioridad":"Baja","refcat":"33057A00700119","motivo":"Tendencia NDVI de colonización por matorral (2973 m²)","nota":"Indicio por satélite (tendencia NDVI), no confirmado. Pendiente de verificar en campo y con ortoimagen."}},{"type":"Feature","geometry":{"type":"Point","coordinates":[-5.90779,43.30947]},"properties":{"id":"abandono-33057A01000199","origen":"Posible abandono agrícola","titulo":"Parcela 33057A01000199","tipo":"Abandono agrícola","prioridad":"Baja","refcat":"33057A01000199","motivo":"Tendencia NDVI de colonización por matorral (1833 m²)","nota":"Indicio por satélite (tendencia NDVI), no confirmado. Pendiente de verificar en campo y con ortoimagen."}},{"type":"Feature","geometry":{"type":"Point","coordinates":[-5.91118,43.29489]},"properties":{"id":"abandono-33057A01111196","origen":"Posible abandono agrícola","titulo":"Parcela 33057A01111196","tipo":"Abandono agrícola","prioridad":"Baja","refcat":"33057A01111196","motivo":"Tendencia NDVI de colonización por matorral (6208 m²)","nota":"Indicio por satélite (tendencia NDVI), no confirmado. Pendiente de verificar en campo y con ortoimagen."}},{"type":"Feature","geometry":{"type":"Point","coordinates":[-5.90036,43.31315]},"properties":{"id":"abandono-33057A00211242","origen":"Posible abandono agrícola","titulo":"Parcela 33057A00211242","tipo":"Abandono agrícola","prioridad":"Baja","refcat":"33057A00211242","motivo":"Tendencia NDVI de colonización por matorral (984 m²)","nota":"Indicio por satélite (tendencia NDVI), no confirmado. Pendiente de verificar en campo y con ortoimagen."}},{"type":"Feature","geometry":{"type":"Point","coordinates":[-5.92204,43.30785]},"properties":{"id":"abandono-33057A01209008","origen":"Posible abandono agrícola","titulo":"Parcela 33057A01209008","tipo":"Abandono agrícola","prioridad":"Baja","refcat":"33057A01209008","motivo":"Tendencia NDVI de colonización por matorral (129 m²)","nota":"Indicio por satélite (tendencia NDVI), no confirmado. Pendiente de verificar en campo y con ortoimagen."}},{"type":"Feature","geometry":{"type":"Point","coordinates":[-5.90086,43.31271]},"properties":{"id":"abandono-33057A00200239","origen":"Posible abandono agrícola","titulo":"Parcela 33057A00200239","tipo":"Abandono agrícola","prioridad":"Baja","refcat":"33057A00200239","motivo":"Tendencia NDVI de colonización por matorral (735 m²)","nota":"Indicio por satélite (tendencia NDVI), no confirmado. Pendiente de verificar en campo y con ortoimagen."}},{"type":"Feature","geometry":{"type":"Point","coordinates":[-5.92733,43.30607]},"properties":{"id":"abandono-33057A00100066","origen":"Posible abandono agrícola","titulo":"Parcela 33057A00100066","tipo":"Abandono agrícola","prioridad":"Baja","refcat":"33057A00100066","motivo":"Tendencia NDVI de colonización por matorral (1203 m²)","nota":"Indicio por satélite (tendencia NDVI), no confirmado. Pendiente de verificar en campo y con ortoimagen."}},{"type":"Feature","geometry":{"type":"Point","coordinates":[-5.9305,43.30349]},"properties":{"id":"abandono-33057A01200144","origen":"Posible abandono agrícola","titulo":"Parcela 33057A01200144","tipo":"Abandono agrícola","prioridad":"Baja","refcat":"33057A01200144","motivo":"Tendencia NDVI de colonización por matorral (614 m²)","nota":"Indicio por satélite (tendencia NDVI), no confirmado. Pendiente de verificar en campo y con ortoimagen."}},{"type":"Feature","geometry":{"type":"Point","coordinates":[-5.8641,43.29003]},"properties":{"id":"abandono-33057A00800346","origen":"Posible abandono agrícola","titulo":"Parcela 33057A00800346","tipo":"Abandono agrícola","prioridad":"Baja","refcat":"33057A00800346","motivo":"Tendencia NDVI de colonización por matorral (756 m²)","nota":"Indicio por satélite (tendencia NDVI), no confirmado. Pendiente de verificar en campo y con ortoimagen."}},{"type":"Feature","geometry":{"type":"Point","coordinates":[-5.90475,43.31355]},"properties":{"id":"abandono-33057A00200153","origen":"Posible abandono agrícola","titulo":"Parcela 33057A00200153","tipo":"Abandono agrícola","prioridad":"Baja","refcat":"33057A00200153","motivo":"Tendencia NDVI de colonización por matorral (244 m²)","nota":"Indicio por satélite (tendencia NDVI), no confirmado. Pendiente de verificar en campo y con ortoimagen."}},{"type":"Feature","geometry":{"type":"Point","coordinates":[-5.90953,43.30949]},"properties":{"id":"abandono-33057A01000203","origen":"Posible abandono agrícola","titulo":"Parcela 33057A01000203","tipo":"Abandono agrícola","prioridad":"Baja","refcat":"33057A01000203","motivo":"Tendencia NDVI de colonización por matorral (123 m²)","nota":"Indicio por satélite (tendencia NDVI), no confirmado. Pendiente de verificar en campo y con ortoimagen."}},{"type":"Feature","geometry":{"type":"Point","coordinates":[-5.90478,43.31352]},"properties":{"id":"abandono-33057A00200152","origen":"Posible abandono agrícola","titulo":"Parcela 33057A00200152","tipo":"Abandono agrícola","prioridad":"Baja","refcat":"33057A00200152","motivo":"Tendencia NDVI de colonización por matorral (494 m²)","nota":"Indicio por satélite (tendencia NDVI), no confirmado. Pendiente de verificar en campo y con ortoimagen."}},{"type":"Feature","geometry":{"type":"Point","coordinates":[-5.89892,43.31213]},"properties":{"id":"abandono-33057A00200196","origen":"Posible abandono agrícola","titulo":"Parcela 33057A00200196","tipo":"Abandono agrícola","prioridad":"Baja","refcat":"33057A00200196","motivo":"Tendencia NDVI de colonización por matorral (1244 m²)","nota":"Indicio por satélite (tendencia NDVI), no confirmado. Pendiente de verificar en campo y con ortoimagen."}},{"type":"Feature","geometry":{"type":"Point","coordinates":[-5.9009,43.31317]},"properties":{"id":"abandono-33057A00200238","origen":"Posible abandono agrícola","titulo":"Parcela 33057A00200238","tipo":"Abandono agrícola","prioridad":"Baja","refcat":"33057A00200238","motivo":"Tendencia NDVI de colonización por matorral (826 m²)","nota":"Indicio por satélite (tendencia NDVI), no confirmado. Pendiente de verificar en campo y con ortoimagen."}},{"type":"Feature","geometry":{"type":"Point","coordinates":[-5.93596,43.30013]},"properties":{"id":"abandono-33057A01200344","origen":"Posible abandono agrícola","titulo":"Parcela 33057A01200344","tipo":"Abandono agrícola","prioridad":"Baja","refcat":"33057A01200344","motivo":"Tendencia NDVI de colonización por matorral (1276 m²)","nota":"Indicio por satélite (tendencia NDVI), no confirmado. Pendiente de verificar en campo y con ortoimagen."}},{"type":"Feature","geometry":{"type":"Point","coordinates":[-5.874,43.31702]},"properties":{"id":"abandono-33057A01000249","origen":"Posible abandono agrícola","titulo":"Parcela 33057A01000249","tipo":"Abandono agrícola","prioridad":"Baja","refcat":"33057A01000249","motivo":"Tendencia NDVI de colonización por matorral (319 m²)","nota":"Indicio por satélite (tendencia NDVI), no confirmado. Pendiente de verificar en campo y con ortoimagen."}},{"type":"Feature","geometry":{"type":"Point","coordinates":[-5.91217,43.30963]},"properties":{"id":"abandono-33057A01000007","origen":"Posible abandono agrícola","titulo":"Parcela 33057A01000007","tipo":"Abandono agrícola","prioridad":"Baja","refcat":"33057A01000007","motivo":"Tendencia NDVI de colonización por matorral (1277 m²)","nota":"Indicio por satélite (tendencia NDVI), no confirmado. Pendiente de verificar en campo y con ortoimagen."}},{"type":"Feature","geometry":{"type":"Point","coordinates":[-5.85953,43.29414]},"properties":{"id":"abandono-33057A00800302","origen":"Posible abandono agrícola","titulo":"Parcela 33057A00800302","tipo":"Abandono agrícola","prioridad":"Baja","refcat":"33057A00800302","motivo":"Tendencia NDVI de colonización por matorral (1800 m²)","nota":"Indicio por satélite (tendencia NDVI), no confirmado. Pendiente de verificar en campo y con ortoimagen."}},{"type":"Feature","geometry":{"type":"Point","coordinates":[-5.89517,43.31555]},"properties":{"id":"abandono-33057A00200268","origen":"Posible abandono agrícola","titulo":"Parcela 33057A00200268","tipo":"Abandono agrícola","prioridad":"Baja","refcat":"33057A00200268","motivo":"Tendencia NDVI de colonización por matorral (464 m²)","nota":"Indicio por satélite (tendencia NDVI), no confirmado. Pendiente de verificar en campo y con ortoimagen."}},{"type":"Feature","geometry":{"type":"Point","coordinates":[-5.91554,43.30893]},"properties":{"id":"abandono-33057A01200629","origen":"Posible abandono agrícola","titulo":"Parcela 33057A01200629","tipo":"Abandono agrícola","prioridad":"Baja","refcat":"33057A01200629","motivo":"Tendencia NDVI de colonización por matorral (613 m²)","nota":"Indicio por satélite (tendencia NDVI), no confirmado. Pendiente de verificar en campo y con ortoimagen."}},{"type":"Feature","geometry":{"type":"Point","coordinates":[-5.87836,43.31949]},"properties":{"id":"abandono-33057A00300141","origen":"Posible abandono agrícola","titulo":"Parcela 33057A00300141","tipo":"Abandono agrícola","prioridad":"Baja","refcat":"33057A00300141","motivo":"Tendencia NDVI de colonización por matorral (741 m²)","nota":"Indicio por satélite (tendencia NDVI), no confirmado. Pendiente de verificar en campo y con ortoimagen."}},{"type":"Feature","geometry":{"type":"Point","coordinates":[-5.85847,43.30504]},"properties":{"id":"abandono-33057A00800620","origen":"Posible abandono agrícola","titulo":"Parcela 33057A00800620","tipo":"Abandono agrícola","prioridad":"Baja","refcat":"33057A00800620","motivo":"Tendencia NDVI de colonización por matorral (450 m²)","nota":"Indicio por satélite (tendencia NDVI), no confirmado. Pendiente de verificar en campo y con ortoimagen."}},{"type":"Feature","geometry":{"type":"Point","coordinates":[-5.90925,43.31156]},"properties":{"id":"abandono-33057A01000039","origen":"Posible abandono agrícola","titulo":"Parcela 33057A01000039","tipo":"Abandono agrícola","prioridad":"Baja","refcat":"33057A01000039","motivo":"Tendencia NDVI de colonización por matorral (636 m²)","nota":"Indicio por satélite (tendencia NDVI), no confirmado. Pendiente de verificar en campo y con ortoimagen."}},{"type":"Feature","geometry":{"type":"Point","coordinates":[-5.89997,43.31341]},"properties":{"id":"abandono-33057A00211256","origen":"Posible abandono agrícola","titulo":"Parcela 33057A00211256","tipo":"Abandono agrícola","prioridad":"Baja","refcat":"33057A00211256","motivo":"Tendencia NDVI de colonización por matorral (821 m²)","nota":"Indicio por satélite (tendencia NDVI), no confirmado. Pendiente de verificar en campo y con ortoimagen."}},{"type":"Feature","geometry":{"type":"Point","coordinates":[-5.90056,43.31312]},"properties":{"id":"abandono-33057A00200241","origen":"Posible abandono agrícola","titulo":"Parcela 33057A00200241","tipo":"Abandono agrícola","prioridad":"Baja","refcat":"33057A00200241","motivo":"Tendencia NDVI de colonización por matorral (2444 m²)","nota":"Indicio por satélite (tendencia NDVI), no confirmado. Pendiente de verificar en campo y con ortoimagen."}},{"type":"Feature","geometry":{"type":"Point","coordinates":[-5.89164,43.31597]},"properties":{"id":"abandono-33057A00200278","origen":"Posible abandono agrícola","titulo":"Parcela 33057A00200278","tipo":"Abandono agrícola","prioridad":"Baja","refcat":"33057A00200278","motivo":"Tendencia NDVI de colonización por matorral (623 m²)","nota":"Indicio por satélite (tendencia NDVI), no confirmado. Pendiente de verificar en campo y con ortoimagen."}},{"type":"Feature","geometry":{"type":"Point","coordinates":[-5.91073,43.31207]},"properties":{"id":"abandono-33057A01000030","origen":"Posible abandono agrícola","titulo":"Parcela 33057A01000030","tipo":"Abandono agrícola","prioridad":"Baja","refcat":"33057A01000030","motivo":"Tendencia NDVI de colonización por matorral (7316 m²)","nota":"Indicio por satélite (tendencia NDVI), no confirmado. Pendiente de verificar en campo y con ortoimagen."}},{"type":"Feature","geometry":{"type":"Point","coordinates":[-5.90015,43.31339]},"properties":{"id":"abandono-33057A00200243","origen":"Posible abandono agrícola","titulo":"Parcela 33057A00200243","tipo":"Abandono agrícola","prioridad":"Baja","refcat":"33057A00200243","motivo":"Tendencia NDVI de colonización por matorral (1384 m²)","nota":"Indicio por satélite (tendencia NDVI), no confirmado. Pendiente de verificar en campo y con ortoimagen."}},{"type":"Feature","geometry":{"type":"Point","coordinates":[-5.84613,43.29848]},"properties":{"id":"abandono-33057A00700104","origen":"Posible abandono agrícola","titulo":"Parcela 33057A00700104","tipo":"Abandono agrícola","prioridad":"Baja","refcat":"33057A00700104","motivo":"Tendencia NDVI de colonización por matorral (729 m²)","nota":"Indicio por satélite (tendencia NDVI), no confirmado. Pendiente de verificar en campo y con ortoimagen."}},{"type":"Feature","geometry":{"type":"Point","coordinates":[-5.93558,43.29702]},"properties":{"id":"abandono-33057A01200548","origen":"Posible abandono agrícola","titulo":"Parcela 33057A01200548","tipo":"Abandono agrícola","prioridad":"Baja","refcat":"33057A01200548","motivo":"Tendencia NDVI de colonización por matorral (2548 m²)","nota":"Indicio por satélite (tendencia NDVI), no confirmado. Pendiente de verificar en campo y con ortoimagen."}},{"type":"Feature","geometry":{"type":"Point","coordinates":[-5.87664,43.3182]},"properties":{"id":"abandono-33057A00300126","origen":"Posible abandono agrícola","titulo":"Parcela 33057A00300126","tipo":"Abandono agrícola","prioridad":"Baja","refcat":"33057A00300126","motivo":"Tendencia NDVI de colonización por matorral (1113 m²)","nota":"Indicio por satélite (tendencia NDVI), no confirmado. Pendiente de verificar en campo y con ortoimagen."}},{"type":"Feature","geometry":{"type":"Point","coordinates":[-5.87537,43.3097]},"properties":{"id":"abandono-33057A01000266","origen":"Posible abandono agrícola","titulo":"Parcela 33057A01000266","tipo":"Abandono agrícola","prioridad":"Baja","refcat":"33057A01000266","motivo":"Tendencia NDVI de colonización por matorral (494 m²)","nota":"Indicio por satélite (tendencia NDVI), no confirmado. Pendiente de verificar en campo y con ortoimagen."}},{"type":"Feature","geometry":{"type":"Point","coordinates":[-5.84811,43.30526]},"properties":{"id":"abandono-33057A00600297","origen":"Posible abandono agrícola","titulo":"Parcela 33057A00600297","tipo":"Abandono agrícola","prioridad":"Baja","refcat":"33057A00600297","motivo":"Tendencia NDVI de colonización por matorral (1348 m²)","nota":"Indicio por satélite (tendencia NDVI), no confirmado. Pendiente de verificar en campo y con ortoimagen."}},{"type":"Feature","geometry":{"type":"Point","coordinates":[-5.90471,43.31358]},"properties":{"id":"abandono-33057A00200154","origen":"Posible abandono agrícola","titulo":"Parcela 33057A00200154","tipo":"Abandono agrícola","prioridad":"Baja","refcat":"33057A00200154","motivo":"Tendencia NDVI de colonización por matorral (470 m²)","nota":"Indicio por satélite (tendencia NDVI), no confirmado. Pendiente de verificar en campo y con ortoimagen."}},{"type":"Feature","geometry":{"type":"Point","coordinates":[-5.89137,43.3084]},"properties":{"id":"abandono-33057A01100403","origen":"Posible abandono agrícola","titulo":"Parcela 33057A01100403","tipo":"Abandono agrícola","prioridad":"Baja","refcat":"33057A01100403","motivo":"Tendencia NDVI de colonización por matorral (1168 m²)","nota":"Indicio por satélite (tendencia NDVI), no confirmado. Pendiente de verificar en campo y con ortoimagen."}},{"type":"Feature","geometry":{"type":"Point","coordinates":[-5.89566,43.31518]},"properties":{"id":"abandono-33057A00211266","origen":"Posible abandono agrícola","titulo":"Parcela 33057A00211266","tipo":"Abandono agrícola","prioridad":"Baja","refcat":"33057A00211266","motivo":"Tendencia NDVI de colonización por matorral (490 m²)","nota":"Indicio por satélite (tendencia NDVI), no confirmado. Pendiente de verificar en campo y con ortoimagen."}},{"type":"Feature","geometry":{"type":"Point","coordinates":[-5.90077,43.3132]},"properties":{"id":"abandono-33057A00200240","origen":"Posible abandono agrícola","titulo":"Parcela 33057A00200240","tipo":"Abandono agrícola","prioridad":"Baja","refcat":"33057A00200240","motivo":"Tendencia NDVI de colonización por matorral (988 m²)","nota":"Indicio por satélite (tendencia NDVI), no confirmado. Pendiente de verificar en campo y con ortoimagen."}},{"type":"Feature","geometry":{"type":"Point","coordinates":[-5.86068,43.30433]},"properties":{"id":"abandono-33057A00800652","origen":"Posible abandono agrícola","titulo":"Parcela 33057A00800652","tipo":"Abandono agrícola","prioridad":"Baja","refcat":"33057A00800652","motivo":"Tendencia NDVI de colonización por matorral (807 m²)","nota":"Indicio por satélite (tendencia NDVI), no confirmado. Pendiente de verificar en campo y con ortoimagen."}},{"type":"Feature","geometry":{"type":"Point","coordinates":[-5.8593,43.29451]},"properties":{"id":"abandono-33057A00809059","origen":"Posible abandono agrícola","titulo":"Parcela 33057A00809059","tipo":"Abandono agrícola","prioridad":"Baja","refcat":"33057A00809059","motivo":"Tendencia NDVI de colonización por matorral (395 m²)","nota":"Indicio por satélite (tendencia NDVI), no confirmado. Pendiente de verificar en campo y con ortoimagen."}},{"type":"Feature","geometry":{"type":"Point","coordinates":[-5.93437,43.29691]},"properties":{"id":"abandono-33057A01200546","origen":"Posible abandono agrícola","titulo":"Parcela 33057A01200546","tipo":"Abandono agrícola","prioridad":"Baja","refcat":"33057A01200546","motivo":"Tendencia NDVI de colonización por matorral (1431 m²)","nota":"Indicio por satélite (tendencia NDVI), no confirmado. Pendiente de verificar en campo y con ortoimagen."}},{"type":"Feature","geometry":{"type":"Point","coordinates":[-5.91421,43.30912]},"properties":{"id":"abandono-33057A01200041","origen":"Posible abandono agrícola","titulo":"Parcela 33057A01200041","tipo":"Abandono agrícola","prioridad":"Baja","refcat":"33057A01200041","motivo":"Tendencia NDVI de colonización por matorral (395 m²)","nota":"Indicio por satélite (tendencia NDVI), no confirmado. Pendiente de verificar en campo y con ortoimagen."}},{"type":"Feature","geometry":{"type":"Point","coordinates":[-5.90789,43.30911]},"properties":{"id":"abandono-33057A01000210","origen":"Posible abandono agrícola","titulo":"Parcela 33057A01000210","tipo":"Abandono agrícola","prioridad":"Baja","refcat":"33057A01000210","motivo":"Tendencia NDVI de colonización por matorral (103 m²)","nota":"Indicio por satélite (tendencia NDVI), no confirmado. Pendiente de verificar en campo y con ortoimagen."}},{"type":"Feature","geometry":{"type":"Point","coordinates":[-5.90544,43.31049]},"properties":{"id":"abandono-33057A01009010","origen":"Posible abandono agrícola","titulo":"Parcela 33057A01009010","tipo":"Abandono agrícola","prioridad":"Baja","refcat":"33057A01009010","motivo":"Tendencia NDVI de colonización por matorral (899 m²)","nota":"Indicio por satélite (tendencia NDVI), no confirmado. Pendiente de verificar en campo y con ortoimagen."}},{"type":"Feature","geometry":{"type":"Point","coordinates":[-5.90942,43.31189]},"properties":{"id":"abandono-33057A01000037","origen":"Posible abandono agrícola","titulo":"Parcela 33057A01000037","tipo":"Abandono agrícola","prioridad":"Baja","refcat":"33057A01000037","motivo":"Tendencia NDVI de colonización por matorral (961 m²)","nota":"Indicio por satélite (tendencia NDVI), no confirmado. Pendiente de verificar en campo y con ortoimagen."}},{"type":"Feature","geometry":{"type":"Point","coordinates":[-5.91651,43.30955]},"properties":{"id":"abandono-33057A01200035","origen":"Posible abandono agrícola","titulo":"Parcela 33057A01200035","tipo":"Abandono agrícola","prioridad":"Baja","refcat":"33057A01200035","motivo":"Tendencia NDVI de colonización por matorral (626 m²)","nota":"Indicio por satélite (tendencia NDVI), no confirmado. Pendiente de verificar en campo y con ortoimagen."}},{"type":"Feature","geometry":{"type":"Point","coordinates":[-5.89856,43.31672]},"properties":{"id":"abandono-33057A00300358","origen":"Posible abandono agrícola","titulo":"Parcela 33057A00300358","tipo":"Abandono agrícola","prioridad":"Baja","refcat":"33057A00300358","motivo":"Tendencia NDVI de colonización por matorral (447 m²)","nota":"Indicio por satélite (tendencia NDVI), no confirmado. Pendiente de verificar en campo y con ortoimagen."}},{"type":"Feature","geometry":{"type":"Point","coordinates":[-5.87713,43.32012]},"properties":{"id":"abandono-33057A00300097","origen":"Posible abandono agrícola","titulo":"Parcela 33057A00300097","tipo":"Abandono agrícola","prioridad":"Baja","refcat":"33057A00300097","motivo":"Tendencia NDVI de colonización por matorral (329 m²)","nota":"Indicio por satélite (tendencia NDVI), no confirmado. Pendiente de verificar en campo y con ortoimagen."}},{"type":"Feature","geometry":{"type":"Point","coordinates":[-5.90798,43.30913]},"properties":{"id":"abandono-33057A01000220","origen":"Posible abandono agrícola","titulo":"Parcela 33057A01000220","tipo":"Abandono agrícola","prioridad":"Baja","refcat":"33057A01000220","motivo":"Tendencia NDVI de colonización por matorral (33 m²)","nota":"Indicio por satélite (tendencia NDVI), no confirmado. Pendiente de verificar en campo y con ortoimagen."}},{"type":"Feature","geometry":{"type":"Point","coordinates":[-5.86457,43.29028]},"properties":{"id":"abandono-33057A00800197","origen":"Posible abandono agrícola","titulo":"Parcela 33057A00800197","tipo":"Abandono agrícola","prioridad":"Baja","refcat":"33057A00800197","motivo":"Tendencia NDVI de colonización por matorral (763 m²)","nota":"Indicio por satélite (tendencia NDVI), no confirmado. Pendiente de verificar en campo y con ortoimagen."}},{"type":"Feature","geometry":{"type":"Point","coordinates":[-5.88056,43.30772]},"properties":{"id":"abandono-33057A01300111","origen":"Posible abandono agrícola","titulo":"Parcela 33057A01300111","tipo":"Abandono agrícola","prioridad":"Baja","refcat":"33057A01300111","motivo":"Tendencia NDVI de colonización por matorral (3245 m²)","nota":"Indicio por satélite (tendencia NDVI), no confirmado. Pendiente de verificar en campo y con ortoimagen."}},{"type":"Feature","geometry":{"type":"Point","coordinates":[-5.9089,43.31181]},"properties":{"id":"abandono-33057A01000042","origen":"Posible abandono agrícola","titulo":"Parcela 33057A01000042","tipo":"Abandono agrícola","prioridad":"Baja","refcat":"33057A01000042","motivo":"Tendencia NDVI de colonización por matorral (881 m²)","nota":"Indicio por satélite (tendencia NDVI), no confirmado. Pendiente de verificar en campo y con ortoimagen."}},{"type":"Feature","geometry":{"type":"Point","coordinates":[-5.90803,43.30888]},"properties":{"id":"abandono-33057A01000207","origen":"Posible abandono agrícola","titulo":"Parcela 33057A01000207","tipo":"Abandono agrícola","prioridad":"Baja","refcat":"33057A01000207","motivo":"Tendencia NDVI de colonización por matorral (488 m²)","nota":"Indicio por satélite (tendencia NDVI), no confirmado. Pendiente de verificar en campo y con ortoimagen."}}]}